{
"type": "FeatureCollection",
"name": "hi_service_areas",
"crs": { "type": "name", "properties": { "name": "urn:ogc:def:crs:OGC:1.3:CRS84" } },
"features": [
{ "type": "Feature", "properties": { "state_po": "HI", "congressional_district": "HI-01", "pwsid": "HI0000354", "pws_name": "CAMP STOVER", "population_served_count": 595, "model_method": "Random Forest", "verification_status": "", "symbology_field": "Modeled", "intersection_area_sq_km": 1.2020639385588896 }, "geometry": { "type": "Polygon", "coordinates": [ [ [ -157.888286099999988, 21.315103499999985 ], [ -157.891305099999983, 21.3230525 ], [ -157.887529099999966, 21.3217645 ], [ -157.8821361, 21.3273205 ], [ -157.8833841, 21.329304499999978 ], [ -157.8770461, 21.326619499999982 ], [ -157.878516099999985, 21.325124500000022 ], [ -157.8763591, 21.323261500000026 ], [ -157.8776201, 21.322621500000011 ], [ -157.8770021, 21.3206415 ], [ -157.8762231, 21.321226500000019 ], [ -157.8732891, 21.322173500000019 ], [ -157.8787841, 21.319514499999979 ], [ -157.8805231, 21.3167935 ], [ -157.8804711, 21.3197565 ], [ -157.882263099999989, 21.3171515 ], [ -157.882704099999984, 21.319954500000023 ], [ -157.8829091, 21.317002499999983 ], [ -157.8856121, 21.316115500000024 ], [ -157.8861531, 21.31721049999998 ], [ -157.8862651, 21.315768500000011 ], [ -157.888286099999988, 21.315103499999985 ] ] ] } },
{ "type": "Feature", "properties": { "state_po": "HI", "congressional_district": "HI-02", "pwsid": "HI0000169", "pws_name": "HAWAIIAN OCEAN VIEW ESTATES", "population_served_count": 1000, "model_method": "Random Forest", "verification_status": "", "symbology_field": "Modeled", "intersection_area_sq_km": 0.4896609096162281 }, "geometry": { "type": "Polygon", "coordinates": [ [ [ -155.052657499999953, 19.732301600000035 ], [ -155.046926199999973, 19.73130040000003 ], [ -155.0513551, 19.728835 ], [ -155.0532121, 19.730516300000012 ], [ -155.054380699999967, 19.727451699999985 ], [ -155.0621653, 19.723454900000046 ], [ -155.0640192, 19.727868800000028 ], [ -155.0681151, 19.727444800000029 ], [ -155.063972, 19.728917 ], [ -155.0611782, 19.725885 ], [ -155.052657499999953, 19.732301600000035 ] ] ] } },
{ "type": "Feature", "properties": { "state_po": "HI", "congressional_district": "HI-02", "pwsid": "HI0000437", "pws_name": "MOLOAA IRRIGATION COOPERATIVE", "population_served_count": 100, "model_method": "Random Forest", "verification_status": "", "symbology_field": "Modeled", "intersection_area_sq_km": 0.43910064526283049 }, "geometry": { "type": "Polygon", "coordinates": [ [ [ -159.322878700000018, 22.1670974 ], [ -159.319468699999987, 22.1693674 ], [ -159.3169187, 22.168647400000026 ], [ -159.314498699999973, 22.164267399999982 ], [ -159.3153997, 22.161927400000025 ], [ -159.3187987, 22.162117400000028 ], [ -159.322878700000018, 22.1670974 ] ] ] } },
{ "type": "Feature", "properties": { "state_po": "HI", "congressional_district": "HI-02", "pwsid": "HI0000432", "pws_name": "ANAHOLA FARM LOTS", "population_served_count": 385, "model_method": "Random Forest", "verification_status": "", "symbology_field": "Modeled", "intersection_area_sq_km": 1.8512447176509219 }, "geometry": { "type": "MultiPolygon", "coordinates": [ [ [ [ -159.328566699999982, 22.1362224 ], [ -159.327798699999988, 22.1343054 ], [ -159.320764699999955, 22.135328400000013 ], [ -159.3226197, 22.1395034 ], [ -159.321644699999979, 22.1458374 ], [ -159.3236717, 22.1520914 ], [ -159.3153747, 22.1548214 ], [ -159.3149287, 22.151507399999982 ], [ -159.3159207, 22.1469674 ], [ -159.3158707, 22.144739399999988 ], [ -159.314865700000013, 22.141354399999969 ], [ -159.3130147, 22.1421734 ], [ -159.3140927, 22.1428754 ], [ -159.31446870000002, 22.143578399999978 ], [ -159.3112037, 22.141450400000011 ], [ -159.3117507, 22.140699400000017 ], [ -159.3147277, 22.139320400000017 ], [ -159.313541699999973, 22.1354514 ], [ -159.3186407, 22.132615399999988 ], [ -159.328891699999986, 22.132901400000019 ], [ -159.328566699999982, 22.1362224 ] ], [ [ -159.3166857, 22.135526400000014 ], [ -159.3170527, 22.134385400000017 ], [ -159.31627469999998, 22.13490239999998 ], [ -159.3166857, 22.135526400000014 ] ], [ [ -159.3154587, 22.138581400000014 ], [ -159.3150647, 22.137787399999983 ], [ -159.3149187, 22.138080400000025 ], [ -159.3154587, 22.138581400000014 ] ], [ [ -159.316508699999986, 22.1380184 ], [ -159.31627469999998, 22.1369824 ], [ -159.31579069999998, 22.137396399999975 ], [ -159.316508699999986, 22.1380184 ] ], [ [ -159.319063699999987, 22.1346804 ], [ -159.3207167, 22.1351584 ], [ -159.3209977, 22.1347574 ], [ -159.3202627, 22.1344434 ], [ -159.319063699999987, 22.1346804 ] ], [ [ -159.3128897, 22.1421394 ], [ -159.31365569999997, 22.1398744 ], [ -159.312270699999971, 22.1417884 ], [ -159.3128897, 22.1421394 ] ], [ [ -159.3172257, 22.139473400000014 ], [ -159.316506699999962, 22.1384994 ], [ -159.3161917, 22.1399124 ], [ -159.3172257, 22.139473400000014 ] ], [ [ -159.3164597, 22.140898399999987 ], [ -159.3147337, 22.1404004 ], [ -159.314189699999986, 22.140844400000013 ], [ -159.3164597, 22.140898399999987 ] ] ], [ [ [ -159.315734699999979, 22.147423399999969 ], [ -159.3156707, 22.147722400000024 ], [ -159.315685699999989, 22.147360399999975 ], [ -159.315734699999979, 22.147423399999969 ] ] ] ] } },
{ "type": "Feature", "properties": { "state_po": "HI", "congressional_district": "HI-02", "pwsid": "HI0000430", "pws_name": "PACIFIC MISSILE RANGE FACILITY", "population_served_count": 1200, "model_method": "Random Forest", "verification_status": "", "symbology_field": "Modeled", "intersection_area_sq_km": 91.501489559994454 }, "geometry": { "type": "MultiPolygon", "coordinates": [ [ [ [ -159.74050944190472, 21.973742001711358 ], [ -159.740681606655414, 21.973782775855053 ], [ -159.740630599999974, 21.973776399999981 ], [ -159.74050944190472, 21.973742001711358 ] ] ], [ [ [ -159.740820344584307, 21.973815633201184 ], [ -159.7436199413971, 21.974478614455723 ], [ -159.7417166, 21.974134400000032 ], [ -159.740820344584307, 21.973815633201184 ] ] ], [ [ [ -159.75018959999997, 21.976039400000033 ], [ -159.750132538081601, 21.976020528081065 ], [ -159.75024065142668, 21.976054495954379 ], [ -159.75018959999997, 21.976039400000033 ] ] ], [ [ [ -159.759405, 21.97951 ], [ -159.759408983312284, 21.979514457687682 ], [ -159.759397628309586, 21.979507220903418 ], [ -159.759405, 21.97951 ] ] ], [ [ [ -159.768910045371655, 21.993845851893639 ], [ -159.765532600000029, 21.98772240000002 ], [ -159.763879241805512, 21.984516660731629 ], [ -159.768910045371655, 21.993845851893639 ] ] ], [ [ [ -159.7806086, 22.010270400000035 ], [ -159.780547052502044, 22.010212101146415 ], [ -159.780785710409504, 22.010376859819125 ], [ -159.7806086, 22.010270400000035 ] ] ], [ [ [ -159.786954413960871, 22.021099838690436 ], [ -159.78593859999998, 22.017929400000025 ], [ -159.785658362217248, 22.017315132937988 ], [ -159.786702, 22.018801 ], [ -159.786954413960871, 22.021099838690436 ] ] ], [ [ [ -159.787909733856338, 22.030234526039791 ], [ -159.787675453909344, 22.031167840155216 ], [ -159.787774599999977, 22.0306384 ], [ -159.787909733856338, 22.030234526039791 ] ] ], [ [ [ -159.7376366, 21.973094399999965 ], [ -159.736543512239393, 21.972801334044995 ], [ -159.737736459761749, 21.97308522268861 ], [ -159.7376366, 21.973094399999965 ] ] ], [ [ [ -159.739405920068265, 21.973480644055943 ], [ -159.7387646, 21.973364399999987 ], [ -159.73815588761255, 21.973184569677336 ], [ -159.739405920068265, 21.973480644055943 ] ] ], [ [ [ -159.775793600000014, 22.021148399999969 ], [ -159.7715476, 22.0249604 ], [ -159.767418599999985, 22.021789399999989 ], [ -159.7635196, 22.025906399999968 ], [ -159.7608686, 22.0256374 ], [ -159.7527366, 22.015839399999965 ], [ -159.7528226, 22.0117744 ], [ -159.754440599999981, 22.0129254 ], [ -159.7599916, 22.0095764 ], [ -159.756004599999983, 22.005331400000021 ], [ -159.7570016, 22.004130400000019 ], [ -159.750859599999984, 22.0001054 ], [ -159.751927599999988, 21.998886400000032 ], [ -159.754828599999968, 21.996577400000021 ], [ -159.759924600000033, 22.001984399999984 ], [ -159.7576216, 22.003772399999974 ], [ -159.758809600000035, 22.0051544 ], [ -159.7632156, 22.009190399999969 ], [ -159.768636599999979, 22.011235400000047 ], [ -159.772551599999986, 22.01539140000002 ], [ -159.7701746, 22.0166894 ], [ -159.775793600000014, 22.021148399999969 ] ] ], [ [ [ -159.6910656, 22.163063400000041 ], [ -159.6915866, 22.159657400000039 ], [ -159.6896516, 22.156327399999952 ], [ -159.67726559999997, 22.153064400000023 ], [ -159.675274599999966, 22.151375399999971 ], [ -159.6704186, 22.1515704 ], [ -159.6650306, 22.149075400000015 ], [ -159.662624600000015, 22.149426400000014 ], [ -159.651019599999955, 22.1424544 ], [ -159.646786599999984, 22.142336399999959 ], [ -159.655568599999981, 22.135787399999987 ], [ -159.6553486, 22.133087400000015 ], [ -159.652028600000023, 22.1318474 ], [ -159.6629386, 22.126757399999963 ], [ -159.6645786, 22.1220174 ], [ -159.669648599999988, 22.1154974 ], [ -159.665348599999959, 22.117852399999954 ], [ -159.6675526, 22.1125674 ], [ -159.666083599999979, 22.109327400000026 ], [ -159.6671246, 22.103623399999989 ], [ -159.664067599999953, 22.095208400000015 ], [ -159.6575646, 22.088414399999984 ], [ -159.6523286, 22.086891400000017 ], [ -159.649869599999988, 22.082954399999974 ], [ -159.6509256, 22.07810739999994 ], [ -159.6453396, 22.070570399999987 ], [ -159.6450786, 22.0661534 ], [ -159.643104599999987, 22.065608399999988 ], [ -159.641886599999964, 22.061049400000012 ], [ -159.6378686, 22.0581204 ], [ -159.637337600000023, 22.053702400000017 ], [ -159.6410426, 22.042930399999982 ], [ -159.6383716, 22.037771399999986 ], [ -159.6442346, 22.0312164 ], [ -159.6471996, 22.0302294 ], [ -159.648126599999983, 22.027877399999984 ], [ -159.651788599999975, 22.029033399999957 ], [ -159.65787659999998, 22.0242344 ], [ -159.6608856, 22.015091400000014 ], [ -159.6622956, 22.01295439999998 ], [ -159.665235599999988, 22.0100344 ], [ -159.665205599999979, 22.007281400000025 ], [ -159.6659846, 22.005777400000042 ], [ -159.6685186, 22.003802399999984 ], [ -159.6655596, 22.007060400000025 ], [ -159.665495599999986, 22.0100894 ], [ -159.6612456, 22.0148164 ], [ -159.6585796, 22.023243399999981 ], [ -159.6697206, 22.025418400000039 ], [ -159.6721786, 22.030197399999981 ], [ -159.665048599999977, 22.036987400000022 ], [ -159.666868599999958, 22.038377400000034 ], [ -159.6628886, 22.0411474 ], [ -159.663348599999978, 22.045127399999963 ], [ -159.661498599999987, 22.04608739999998 ], [ -159.6615986, 22.048637400000047 ], [ -159.657888599999978, 22.0489574 ], [ -159.6632386, 22.055847400000026 ], [ -159.6645886, 22.0624474 ], [ -159.6623286, 22.0647374 ], [ -159.662178600000033, 22.067987400000014 ], [ -159.6661786, 22.072247399999974 ], [ -159.6641296, 22.074369399999977 ], [ -159.6677766, 22.080630399999986 ], [ -159.6688646, 22.081395400000019 ], [ -159.669397600000025, 22.0786744 ], [ -159.67298059999996, 22.076342399999973 ], [ -159.6721216, 22.077632399999963 ], [ -159.6735046, 22.079688399999981 ], [ -159.6800696, 22.0755014 ], [ -159.6846936, 22.077646399999967 ], [ -159.6870616, 22.075196400000028 ], [ -159.692808599999978, 22.0760784 ], [ -159.6978456, 22.074079399999981 ], [ -159.699725600000022, 22.075030400000024 ], [ -159.70654159999998, 22.073439400000019 ], [ -159.7172596, 22.0835824 ], [ -159.7458316, 22.088472400000047 ], [ -159.7535086, 22.070773399999972 ], [ -159.7552986, 22.0495684 ], [ -159.7536586, 22.041892400000023 ], [ -159.7558556, 22.041750400000026 ], [ -159.7563826, 22.039265399999987 ], [ -159.75911259999998, 22.0382874 ], [ -159.757257600000031, 22.0360464 ], [ -159.7526526, 22.036174399999954 ], [ -159.7552126, 22.032679399999985 ], [ -159.759831599999984, 22.033377400000013 ], [ -159.764458599999983, 22.042287399999974 ], [ -159.7593976, 22.048417399999973 ], [ -159.7643056, 22.055056400000016 ], [ -159.767025599999982, 22.052843400000018 ], [ -159.770144599999981, 22.052986400000034 ], [ -159.771838599999967, 22.048971400000017 ], [ -159.773339599999986, 22.0497024 ], [ -159.777719599999983, 22.0417004 ], [ -159.7787366, 22.0420024 ], [ -159.7787736, 22.0413874 ], [ -159.7798996, 22.038970399999979 ], [ -159.7802456, 22.0359994 ], [ -159.7795066, 22.034143399999977 ], [ -159.7795006, 22.032238400000043 ], [ -159.782685599999979, 22.021658399999989 ], [ -159.77959359999997, 22.0321234 ], [ -159.780576599999989, 22.036295400000025 ], [ -159.779971599999982, 22.039224400000023 ], [ -159.7765536, 22.0505384 ], [ -159.7767306, 22.0581184 ], [ -159.771559600000018, 22.064874400000011 ], [ -159.7683026, 22.072853399999978 ], [ -159.7722906, 22.073013400000011 ], [ -159.778380254361764, 22.069477251446031 ], [ -159.771111, 22.07412 ], [ -159.76555, 22.080485 ], [ -159.745247, 22.097508 ], [ -159.743953, 22.103348 ], [ -159.741549, 22.105344 ], [ -159.738429, 22.113501 ], [ -159.738216, 22.119462 ], [ -159.733328, 22.126538 ], [ -159.730544, 22.139953 ], [ -159.722073, 22.150323 ], [ -159.705531, 22.159321 ], [ -159.703077, 22.158053 ], [ -159.698523, 22.162832 ], [ -159.6910656, 22.163063400000041 ] ], [ [ -159.678699599999987, 22.1060324 ], [ -159.680613599999987, 22.1084244 ], [ -159.683529599999986, 22.109016399999962 ], [ -159.6822996, 22.1058274 ], [ -159.678699599999987, 22.1060324 ] ], [ [ -159.7183186, 22.1279454 ], [ -159.718326600000012, 22.130645400000013 ], [ -159.729326599999979, 22.13627540000002 ], [ -159.731483599999962, 22.1280254 ], [ -159.728951599999988, 22.127018400000019 ], [ -159.7183186, 22.1279454 ] ] ], [ [ [ -159.784074133926367, 22.049060854417423 ], [ -159.783824599999974, 22.048356400000024 ], [ -159.783869097412548, 22.047845153320058 ], [ -159.784074133926367, 22.049060854417423 ] ] ], [ [ [ -159.783749242181187, 22.055669130411658 ], [ -159.7842346, 22.05358740000003 ], [ -159.784588145579022, 22.052108361418096 ], [ -159.783749242181187, 22.055669130411658 ] ] ], [ [ [ -159.783154599999989, 22.057035399999943 ], [ -159.783608162149505, 22.056210672579947 ], [ -159.783078634873959, 22.058243218835429 ], [ -159.783154599999989, 22.057035399999943 ] ] ], [ [ [ -159.783005088911864, 22.058525510322379 ], [ -159.78299944296478, 22.058547181076374 ], [ -159.7830016, 22.0585334 ], [ -159.783005088911864, 22.058525510322379 ] ] ] ] } },
{ "type": "Feature", "properties": { "state_po": "HI", "congressional_district": "HI-02", "pwsid": "HI0000423", "pws_name": "KEALIA", "population_served_count": 260, "model_method": "Random Forest", "verification_status": "", "symbology_field": "Modeled", "intersection_area_sq_km": 0.83736880687312298 }, "geometry": { "type": "Polygon", "coordinates": [ [ [ -159.3073657, 22.104531400000013 ], [ -159.3121157, 22.107651400000034 ], [ -159.317613699999953, 22.113770400000021 ], [ -159.312264699999986, 22.113440399999973 ], [ -159.3115147, 22.1115844 ], [ -159.307242699999989, 22.1099304 ], [ -159.303305699999953, 22.111521400000019 ], [ -159.3022497, 22.1093144 ], [ -159.304858700000011, 22.1007074 ], [ -159.3063487, 22.100817399999965 ], [ -159.3073657, 22.104531400000013 ] ] ] } },
{ "type": "Feature", "properties": { "state_po": "HI", "congressional_district": "HI-02", "pwsid": "HI0000417", "pws_name": "GAY & ROBINSON", "population_served_count": 1271, "model_method": "Random Forest", "verification_status": "", "symbology_field": "Modeled", "intersection_area_sq_km": 0.50885565452570725 }, "geometry": { "type": "Polygon", "coordinates": [ [ [ -159.628618599999982, 21.918277399999976 ], [ -159.624547599999971, 21.9204144 ], [ -159.6154086, 21.915497399999971 ], [ -159.619028599999979, 21.913067400000017 ], [ -159.628618599999982, 21.918277399999976 ] ] ] } },
{ "type": "Feature", "properties": { "state_po": "HI", "congressional_district": "HI-02", "pwsid": "HI0000415", "pws_name": "HAENA-WAINIHA", "population_served_count": 833, "model_method": "Random Forest", "verification_status": "", "symbology_field": "Modeled", "intersection_area_sq_km": 6.3857434670929685 }, "geometry": { "type": "MultiPolygon", "coordinates": [ [ [ [ -159.555702599999989, 22.199607400000012 ], [ -159.5535686, 22.205847399999989 ], [ -159.548108599999978, 22.213067400000032 ], [ -159.544458599999956, 22.214477399999968 ], [ -159.5436086, 22.2128174 ], [ -159.5410176, 22.21354940000003 ], [ -159.538692600000019, 22.212354399999981 ], [ -159.53339459999998, 22.215543400000016 ], [ -159.5343756, 22.212610399999981 ], [ -159.5315166, 22.2075944 ], [ -159.5365946, 22.2015234 ], [ -159.549617599999976, 22.2029034 ], [ -159.5480456, 22.2000094 ], [ -159.555702599999989, 22.199607400000012 ] ] ], [ [ [ -159.541809568711983, 22.216065137337896 ], [ -159.559873600000032, 22.213301400000017 ], [ -159.5641276, 22.218910399999974 ], [ -159.5641226, 22.21642140000003 ], [ -159.5678446, 22.2115144 ], [ -159.5741606, 22.210147400000032 ], [ -159.57585659999998, 22.2112484 ], [ -159.577342599999952, 22.223341399999988 ], [ -159.572158599999966, 22.223455400000017 ], [ -159.5656596, 22.2205904 ], [ -159.55858360000002, 22.226255400000021 ], [ -159.5543846, 22.224475400000021 ], [ -159.550518463356468, 22.224781260710529 ], [ -159.5444666, 22.221729400000012 ], [ -159.541809568711983, 22.216065137337896 ] ] ] ] } },
{ "type": "Feature", "properties": { "state_po": "HI", "congressional_district": "HI-02", "pwsid": "HI0000403", "pws_name": "HANALEI", "population_served_count": 500, "model_method": "Random Forest", "verification_status": "", "symbology_field": "Modeled", "intersection_area_sq_km": 0.91370902151733813 }, "geometry": { "type": "Polygon", "coordinates": [ [ [ -159.5098226, 22.202831400000015 ], [ -159.504753599999987, 22.2027164 ], [ -159.4994906, 22.2057624 ], [ -159.49742759999998, 22.209414399999982 ], [ -159.4974866, 22.214642400000031 ], [ -159.4914746, 22.213826400000031 ], [ -159.493351599999983, 22.206791400000014 ], [ -159.4885756, 22.204235400000048 ], [ -159.5007086, 22.201627399999978 ], [ -159.5012686, 22.2028074 ], [ -159.5068626, 22.2005944 ], [ -159.5098226, 22.202831400000015 ] ] ] } },
{ "type": "Feature", "properties": { "state_po": "HI", "congressional_district": "HI-02", "pwsid": "HI0000401", "pws_name": "ANAHOLA", "population_served_count": 2473, "model_method": "Decision Tree", "verification_status": "", "symbology_field": "Modeled", "intersection_area_sq_km": 10.725877749422184 }, "geometry": { "type": "Polygon", "coordinates": [ [ [ -159.296642878998625, 22.105095536025217 ], [ -159.303720699999985, 22.0992924 ], [ -159.3063487, 22.100817399999965 ], [ -159.3075187, 22.105427399999989 ], [ -159.3121157, 22.107651400000034 ], [ -159.3176187, 22.1137174 ], [ -159.312264699999986, 22.113440399999973 ], [ -159.3115147, 22.1115844 ], [ -159.307242699999989, 22.1099304 ], [ -159.303305699999953, 22.111521400000019 ], [ -159.3022497, 22.1093144 ], [ -159.3004087, 22.119477400000026 ], [ -159.302075699999989, 22.127909400000018 ], [ -159.3061267, 22.128417400000018 ], [ -159.311757699999987, 22.1320354 ], [ -159.328891699999986, 22.132901400000019 ], [ -159.3287207, 22.1362494 ], [ -159.327798699999988, 22.1343054 ], [ -159.320764699999955, 22.135328400000013 ], [ -159.3226197, 22.1395034 ], [ -159.321644699999979, 22.1458374 ], [ -159.3236717, 22.1520914 ], [ -159.3153747, 22.1548214 ], [ -159.3159487, 22.157037399999968 ], [ -159.318840699999981, 22.1566774 ], [ -159.317232700000034, 22.1599354 ], [ -159.322878700000018, 22.1670974 ], [ -159.319468699999987, 22.1693674 ], [ -159.3156287, 22.1667674 ], [ -159.3144987, 22.16400740000002 ], [ -159.315888699999988, 22.1619574 ], [ -159.308728699999961, 22.160797400000028 ], [ -159.3089597, 22.1619494 ], [ -159.305038699999983, 22.157899399999984 ], [ -159.306057776411791, 22.150031514171459 ], [ -159.310103699999985, 22.148383399999982 ], [ -159.3115087, 22.145557400000033 ], [ -159.311526699999973, 22.1459014 ], [ -159.3133957, 22.146283400000012 ], [ -159.311765699999967, 22.1454514 ], [ -159.313052699999957, 22.145619399999983 ], [ -159.314351699999975, 22.1447264 ], [ -159.3138167, 22.1434394 ], [ -159.3131597, 22.145306399999981 ], [ -159.311793699999981, 22.145157399999974 ], [ -159.3096117, 22.1461864 ], [ -159.3064267, 22.148673399999986 ], [ -159.3029047, 22.146062400000019 ], [ -159.29793669999998, 22.1462544 ], [ -159.2960617, 22.148087400000037 ], [ -159.293210165444748, 22.143321107930429 ], [ -159.2930207, 22.138305399999954 ], [ -159.294286700000015, 22.136769399999984 ], [ -159.293329699999958, 22.134307400000012 ], [ -159.294885699999952, 22.133123399999963 ], [ -159.294502699999981, 22.1298194 ], [ -159.292531932559683, 22.128080276535687 ], [ -159.294120699999979, 22.123788400000034 ], [ -159.293021700000025, 22.122967399999983 ], [ -159.295906699999989, 22.121646400000042 ], [ -159.294372573150724, 22.120064764372753 ], [ -159.296731699999981, 22.115066400000039 ], [ -159.294638070983609, 22.110857384012526 ], [ -159.296642878998625, 22.105095536025217 ] ], [ [ -159.317880699999961, 22.1353004 ], [ -159.318929699999984, 22.13547740000001 ], [ -159.3188657, 22.135191399999989 ], [ -159.317880699999961, 22.1353004 ] ], [ [ -159.3175747, 22.1365584 ], [ -159.3180017, 22.1366154 ], [ -159.3169847, 22.135874400000013 ], [ -159.3175747, 22.1365584 ] ], [ [ -159.3207167, 22.1351584 ], [ -159.3202627, 22.1344434 ], [ -159.319063699999987, 22.1346804 ], [ -159.3207167, 22.1351584 ] ], [ [ -159.316013699999985, 22.1396864 ], [ -159.316746699999982, 22.1385474 ], [ -159.316506699999962, 22.1384994 ], [ -159.316013699999985, 22.1396864 ] ], [ [ -159.3141757, 22.1406464 ], [ -159.3164597, 22.140898399999987 ], [ -159.316626700000029, 22.140541400000032 ], [ -159.3141757, 22.1406464 ] ], [ [ -159.314154699999989, 22.1419064 ], [ -159.3130147, 22.1421734 ], [ -159.3145777, 22.1437554 ], [ -159.314154699999989, 22.1419064 ] ], [ [ -159.317364699999985, 22.139903399999984 ], [ -159.3172557, 22.140863400000018 ], [ -159.3176997, 22.1405194 ], [ -159.317364699999985, 22.139903399999984 ] ], [ [ -159.2980617, 22.145821400000013 ], [ -159.29839370000002, 22.145226399999988 ], [ -159.297983699999975, 22.1457794 ], [ -159.2980617, 22.145821400000013 ] ], [ [ -159.309664699999985, 22.143005400000028 ], [ -159.3102777, 22.141535400000013 ], [ -159.309430699999979, 22.142999400000015 ], [ -159.309664699999985, 22.143005400000028 ] ], [ [ -159.3128897, 22.1421394 ], [ -159.31365569999997, 22.1398744 ], [ -159.312270699999971, 22.1417884 ], [ -159.3128897, 22.1421394 ] ], [ [ -159.314933699999983, 22.146449400000016 ], [ -159.314809699999984, 22.146063400000017 ], [ -159.3140137, 22.1462454 ], [ -159.314933699999983, 22.146449400000016 ] ], [ [ -159.3158047, 22.1453954 ], [ -159.316248699999989, 22.1459414 ], [ -159.316632699999985, 22.1459594 ], [ -159.3158047, 22.1453954 ] ], [ [ -159.3158087, 22.1453594 ], [ -159.3170807, 22.145963399999978 ], [ -159.3157967, 22.145277400000015 ], [ -159.3158087, 22.1453594 ] ] ] } },
{ "type": "Feature", "properties": { "state_po": "HI", "congressional_district": "HI-02", "pwsid": "HI0000365", "pws_name": "KAHUKU", "population_served_count": 2730, "model_method": "Random Forest", "verification_status": "", "symbology_field": "Modeled", "intersection_area_sq_km": 0.69877129099596358 }, "geometry": { "type": "Polygon", "coordinates": [ [ [ -157.95100709999997, 21.671344499999986 ], [ -157.9517021, 21.6730725 ], [ -157.956170099999952, 21.6717655 ], [ -157.957811099999986, 21.672691500000024 ], [ -157.9586531, 21.676043399999958 ], [ -157.9565231, 21.677634400000013 ], [ -157.9527171, 21.677781400000029 ], [ -157.945339099999984, 21.6751234 ], [ -157.947434099999981, 21.6718085 ], [ -157.95100709999997, 21.671344499999986 ] ] ] } },
{ "type": "Feature", "properties": { "state_po": "HI", "congressional_district": "HI-02", "pwsid": "HI0000231", "pws_name": "MAUNALOA-KALUAKOI", "population_served_count": 1000, "model_method": "Random Forest", "verification_status": "", "symbology_field": "Modeled", "intersection_area_sq_km": 0.5401426997229517 }, "geometry": { "type": "Polygon", "coordinates": [ [ [ -157.214583299999987, 21.1359306 ], [ -157.2133533, 21.1386866 ], [ -157.209653299999957, 21.140655599999985 ], [ -157.2045453, 21.13779660000003 ], [ -157.2071583, 21.132023600000025 ], [ -157.214583299999987, 21.1359306 ] ] ] } },
{ "type": "Feature", "properties": { "state_po": "HI", "congressional_district": "HI-02", "pwsid": "HI0000230", "pws_name": "HOOLEHUA", "population_served_count": 2400, "model_method": "Random Forest", "verification_status": "", "symbology_field": "Modeled", "intersection_area_sq_km": 4.1370130762920896 }, "geometry": { "type": "Polygon", "coordinates": [ [ [ -157.022412299999985, 21.0896286 ], [ -157.0254383, 21.0906126 ], [ -157.0274943, 21.093795600000021 ], [ -157.0265973, 21.09935560000001 ], [ -157.023934299999979, 21.105740600000011 ], [ -157.0161463, 21.1110576 ], [ -157.000408299999975, 21.103654599999967 ], [ -157.008095299999951, 21.09254359999996 ], [ -157.011493300000012, 21.090698599999964 ], [ -157.0152953, 21.095045600000031 ], [ -157.0176243, 21.091503600000021 ], [ -157.022412299999985, 21.0896286 ] ] ] } },
{ "type": "Feature", "properties": { "state_po": "HI", "congressional_district": "HI-02", "pwsid": "HI0000222", "pws_name": "HALEAKALA NATIONAL PARK", "population_served_count": 1200, "model_method": "Random Forest", "verification_status": "", "symbology_field": "Modeled", "intersection_area_sq_km": 0.64630634935296727 }, "geometry": { "type": "Polygon", "coordinates": [ [ [ -156.279389599999973, 20.806823599999966 ], [ -156.2751786, 20.809144600000032 ], [ -156.2756456, 20.810812599999981 ], [ -156.272868599999981, 20.8109286 ], [ -156.2678856, 20.80302159999998 ], [ -156.2730206, 20.800259600000039 ], [ -156.2769456, 20.8068386 ], [ -156.2784586, 20.8058776 ], [ -156.279389599999973, 20.806823599999966 ] ] ] } },
{ "type": "Feature", "properties": { "state_po": "HI", "congressional_district": "HI-02", "pwsid": "HI0000209", "pws_name": "OLOWALU", "population_served_count": 100, "model_method": "Decision Tree", "verification_status": "", "symbology_field": "Modeled", "intersection_area_sq_km": 13.290309832302787 }, "geometry": { "type": "Polygon", "coordinates": [ [ [ -156.686518399999983, 20.885316599999982 ], [ -156.684972400000021, 20.8849526 ], [ -156.6846314, 20.902029599999967 ], [ -156.6796314, 20.9016046 ], [ -156.6794984, 20.8997596 ], [ -156.68120140000002, 20.899915600000018 ], [ -156.6801614, 20.89662460000001 ], [ -156.682984399999953, 20.895210599999977 ], [ -156.6800184, 20.895608599999971 ], [ -156.681374399999982, 20.888793599999982 ], [ -156.6796244, 20.885981600000029 ], [ -156.6773584, 20.8863626 ], [ -156.6822814, 20.8848786 ], [ -156.682004399999983, 20.883897599999987 ], [ -156.67492139999996, 20.8834336 ], [ -156.6645144, 20.891068599999983 ], [ -156.657310399999972, 20.892335599999971 ], [ -156.660379399999982, 20.891146599999974 ], [ -156.6602964, 20.8863596 ], [ -156.664209400000033, 20.8832146 ], [ -156.6628734, 20.876559599999982 ], [ -156.658340399999958, 20.869944600000021 ], [ -156.6566024, 20.862394599999966 ], [ -156.655527399999983, 20.863703600000012 ], [ -156.6546114, 20.8623746 ], [ -156.652768399999957, 20.863194600000039 ], [ -156.6513594, 20.860449600000045 ], [ -156.6434064, 20.855318599999979 ], [ -156.640001399999989, 20.857917599999961 ], [ -156.6397054, 20.8608106 ], [ -156.637944399999981, 20.858511599999989 ], [ -156.6354734, 20.858484599999965 ], [ -156.633190399999989, 20.853656599999962 ], [ -156.63002849999998, 20.8520106 ], [ -156.626997399999965, 20.852743600000021 ], [ -156.6247654, 20.841442599999986 ], [ -156.6313965, 20.837827600000011 ], [ -156.628988400000026, 20.834057599999952 ], [ -156.6361225, 20.829937600000012 ], [ -156.6381605, 20.830899600000013 ], [ -156.6406734, 20.834787600000016 ], [ -156.6468844, 20.838920600000023 ], [ -156.6508814, 20.848023599999983 ], [ -156.6631084, 20.863794600000055 ], [ -156.6672404, 20.8604666 ], [ -156.6635724, 20.855456599999989 ], [ -156.669618124045741, 20.859064800573343 ], [ -156.677455399999985, 20.8694136 ], [ -156.6785054, 20.87380060000002 ], [ -156.687542399999955, 20.8818566 ], [ -156.686518399999983, 20.885316599999982 ] ], [ [ -156.6717864, 20.868977599999948 ], [ -156.670531399999987, 20.869387599999989 ], [ -156.673184400000025, 20.87238060000001 ], [ -156.6717864, 20.868977599999948 ] ] ] } },
{ "type": "Feature", "properties": { "state_po": "HI", "congressional_district": "HI-02", "pwsid": "HI0000237", "pws_name": "LANAI CITY", "population_served_count": 3200, "model_method": "Decision Tree", "verification_status": "", "symbology_field": "Modeled", "intersection_area_sq_km": 6.827577333597783 }, "geometry": { "type": "Polygon", "coordinates": [ [ [ -156.916132300000015, 20.8250516 ], [ -156.914302300000031, 20.820679599999988 ], [ -156.915839299999988, 20.8197536 ], [ -156.9150113, 20.817931599999948 ], [ -156.9163753, 20.81550560000003 ], [ -156.918496299999987, 20.817576599999967 ], [ -156.9270703, 20.810560600000031 ], [ -156.9310993, 20.81412659999998 ], [ -156.9370893, 20.821430600000028 ], [ -156.934506299999981, 20.831505599999964 ], [ -156.9313023, 20.8363016 ], [ -156.9365403, 20.8426246 ], [ -156.939873299999988, 20.850836599999962 ], [ -156.9344563, 20.851302599999975 ], [ -156.93021730000001, 20.848614600000033 ], [ -156.9256983, 20.8430566 ], [ -156.9234343, 20.8444476 ], [ -156.921300299999984, 20.842488600000021 ], [ -156.918550299999964, 20.8350426 ], [ -156.915645300000023, 20.834500599999977 ], [ -156.913003299999986, 20.8268566 ], [ -156.912194299999982, 20.82403560000003 ], [ -156.916132300000015, 20.8250516 ] ], [ [ -156.9162183, 20.825079599999984 ], [ -156.9171303, 20.826979599999984 ], [ -156.9192603, 20.826232599999987 ], [ -156.9197393, 20.8272636 ], [ -156.9214093, 20.8253596 ], [ -156.918305299999986, 20.821865599999974 ], [ -156.9170163, 20.822385600000022 ], [ -156.917890299999982, 20.824314600000037 ], [ -156.9162183, 20.825079599999984 ] ], [ [ -156.9145713, 20.827622600000026 ], [ -156.9147893, 20.826918599999974 ], [ -156.9143743, 20.827210599999976 ], [ -156.9145713, 20.827622600000026 ] ] ] } },
{ "type": "Feature", "properties": { "state_po": "HI", "congressional_district": "HI-02", "pwsid": "HI0000239", "pws_name": "KALAUPAPA NHP", "population_served_count": 110, "model_method": "Random Forest", "verification_status": "", "symbology_field": "Modeled", "intersection_area_sq_km": 0.18345819185111845 }, "geometry": { "type": "Polygon", "coordinates": [ [ [ -156.9839313, 21.192024500000024 ], [ -156.980887300000035, 21.189983499999986 ], [ -156.9798673, 21.191573500000043 ], [ -156.978329299999984, 21.189053500000014 ], [ -156.9798313, 21.18574650000005 ], [ -156.9805893, 21.18884049999998 ], [ -156.9835483, 21.188260500000023 ], [ -156.9839313, 21.192024500000024 ] ] ] } },
{ "type": "Feature", "properties": { "state_po": "HI", "congressional_district": "HI-02", "pwsid": "HI0000243", "pws_name": "HANA WATER SYSTEMS - NORTH", "population_served_count": 160, "model_method": "Random Forest", "verification_status": "", "symbology_field": "Modeled", "intersection_area_sq_km": 0.53315383441875652 }, "geometry": { "type": "Polygon", "coordinates": [ [ [ -156.023566599999981, 20.784548600000026 ], [ -156.021134599999982, 20.7868016 ], [ -156.0209356, 20.792058600000033 ], [ -156.0168286, 20.791867599999982 ], [ -156.0169406, 20.782132599999979 ], [ -156.021729599999986, 20.782719599999986 ], [ -156.023566599999981, 20.784548600000026 ] ] ] } },
{ "type": "Feature", "properties": { "state_po": "HI", "congressional_district": "HI-02", "pwsid": "HI0000245", "pws_name": "KIPU", "population_served_count": 80, "model_method": "Random Forest", "verification_status": "", "symbology_field": "Modeled", "intersection_area_sq_km": 167.12490400576135 }, "geometry": { "type": "MultiPolygon", "coordinates": [ [ [ [ -157.249701, 21.084802 ], [ -157.249708864504129, 21.084809962069638 ], [ -157.249642659295262, 21.084827911100767 ], [ -157.249701, 21.084802 ] ] ], [ [ [ -157.243068199999982, 21.087896600000015 ], [ -157.247949068873595, 21.085580069630204 ], [ -157.2467292, 21.086707600000029 ], [ -157.250847199999953, 21.086807599999982 ], [ -157.249711356204244, 21.084812484680782 ], [ -157.252534, 21.08767 ], [ -157.274071, 21.091478 ], [ -157.298841, 21.09337 ], [ -157.304092, 21.09517 ], [ -157.310748, 21.101627 ], [ -157.300894, 21.114642 ], [ -157.298753, 21.120752 ], [ -157.300567, 21.124027 ], [ -157.2963172, 21.1299436 ], [ -157.296737, 21.133047 ], [ -157.289576200000027, 21.137685600000029 ], [ -157.290873005425368, 21.140724317185292 ], [ -157.2892832, 21.1415896 ], [ -157.291064, 21.143019 ], [ -157.288437943567459, 21.146824734368561 ], [ -157.280685124416664, 21.155038915562898 ], [ -157.2789252, 21.1544526 ], [ -157.27722192163526, 21.158429118985659 ], [ -157.2705152, 21.1599696 ], [ -157.25672, 21.171067 ], [ -157.251375, 21.177816 ], [ -157.252443, 21.182337 ], [ -157.2503442, 21.1832806 ], [ -157.248547199999962, 21.1868645 ], [ -157.248359199999982, 21.190712499999989 ], [ -157.249558791296806, 21.191493576625597 ], [ -157.2477182, 21.1960475 ], [ -157.247964199999984, 21.202445500000024 ], [ -157.250679199999979, 21.2084775 ], [ -157.258914, 21.215413 ], [ -157.259880199999969, 21.2181735 ], [ -157.257522, 21.222394 ], [ -157.254104, 21.224145 ], [ -157.2524582, 21.220307500000011 ], [ -157.240862199999981, 21.214271499999974 ], [ -157.2364052, 21.214433500000023 ], [ -157.2350242, 21.212409499999978 ], [ -157.23194620000001, 21.2165375 ], [ -157.218268199999983, 21.209891499999959 ], [ -157.2067183, 21.1973325 ], [ -157.207009299999982, 21.194700499999961 ], [ -157.2049123, 21.1917045 ], [ -157.190381299999984, 21.184990500000016 ], [ -157.1768993, 21.172240600000023 ], [ -157.175938299999956, 21.1639886 ], [ -157.1723173, 21.1574216 ], [ -157.170588299999963, 21.1550606 ], [ -157.168011299999989, 21.155815599999983 ], [ -157.1632093, 21.1480036 ], [ -157.1461013, 21.1481716 ], [ -157.1320153, 21.145742599999966 ], [ -157.129480299999983, 21.1418846 ], [ -157.1171593, 21.1388336 ], [ -157.097508299999987, 21.1179826 ], [ -157.092813299999989, 21.115236599999985 ], [ -157.0973683, 21.115828600000022 ], [ -157.09888429999998, 21.1175846 ], [ -157.1068153, 21.111978600000032 ], [ -157.101883688990767, 21.10066143934446 ], [ -157.1049913, 21.101694600000044 ], [ -157.112571300000013, 21.100870599999986 ], [ -157.149064, 21.091538 ], [ -157.154887299999984, 21.092954600000017 ], [ -157.1730613, 21.092439599999963 ], [ -157.178468899484415, 21.091020268395706 ], [ -157.186408299999982, 21.09172060000002 ], [ -157.243068199999982, 21.087896600000015 ] ], [ [ -157.2081743, 21.122693599999987 ], [ -157.194653300000027, 21.124034600000034 ], [ -157.1952693, 21.129076599999962 ], [ -157.1910653, 21.129885599999973 ], [ -157.1978643, 21.1470926 ], [ -157.205971299999987, 21.144873600000011 ], [ -157.209653299999957, 21.140655599999985 ], [ -157.2045453, 21.13779660000003 ], [ -157.2068483, 21.134454599999984 ], [ -157.2087003, 21.125376600000028 ], [ -157.207207299999965, 21.12543759999998 ], [ -157.2081743, 21.122693599999987 ] ], [ [ -157.213510299999967, 21.129205599999963 ], [ -157.2137143, 21.132886600000038 ], [ -157.212525299999982, 21.132983599999978 ], [ -157.2126873, 21.130176599999967 ], [ -157.2097303, 21.130224600000012 ], [ -157.210125299999987, 21.1345666 ], [ -157.214583299999987, 21.1359306 ], [ -157.212378299999983, 21.13939759999996 ], [ -157.216938299999981, 21.141850600000055 ], [ -157.221373299999982, 21.134668599999969 ], [ -157.213510299999967, 21.129205599999963 ] ], [ [ -157.2768082, 21.1415416 ], [ -157.2698312, 21.1459796 ], [ -157.2731602, 21.150187599999981 ], [ -157.273360199999985, 21.152684600000018 ], [ -157.279089199999959, 21.151748599999969 ], [ -157.2844662, 21.145591600000024 ], [ -157.2820652, 21.1432496 ], [ -157.2768082, 21.1415416 ] ], [ [ -157.237055199999958, 21.1732066 ], [ -157.230582199999986, 21.1725556 ], [ -157.2246362, 21.178190600000036 ], [ -157.229502199999985, 21.182781500000047 ], [ -157.2338852, 21.1823796 ], [ -157.238407200000012, 21.1853795 ], [ -157.2414842, 21.185352500000018 ], [ -157.2461592, 21.1747786 ], [ -157.244474199999985, 21.174081599999958 ], [ -157.240217200000018, 21.176616600000031 ], [ -157.237055199999958, 21.1732066 ] ] ] ] } },
{ "type": "Feature", "properties": { "state_po": "HI", "congressional_district": "HI-02", "pwsid": "HI0000248", "pws_name": "KAWELA PLANTATION", "population_served_count": 553, "model_method": "Random Forest", "verification_status": "", "symbology_field": "Modeled", "intersection_area_sq_km": 0.36189701460797574 }, "geometry": { "type": "Polygon", "coordinates": [ [ [ -156.976922299999984, 21.0708116 ], [ -156.976809299999985, 21.072390600000023 ], [ -156.942550300000022, 21.063099600000033 ], [ -156.948541174896775, 21.063395778321677 ], [ -156.9538813, 21.0661356 ], [ -156.965642092736374, 21.068198293611655 ], [ -156.97233, 21.070902 ], [ -156.976922299999984, 21.0708116 ] ] ] } },
{ "type": "Feature", "properties": { "state_po": "HI", "congressional_district": "HI-02", "pwsid": "HI0000249", "pws_name": "KAHAKULOA WATER CO.", "population_served_count": 150, "model_method": "Random Forest", "verification_status": "", "symbology_field": "Modeled", "intersection_area_sq_km": 0.17724549389752131 }, "geometry": { "type": "Polygon", "coordinates": [ [ [ -156.540550500000023, 20.968174600000022 ], [ -156.5401455, 20.9701796 ], [ -156.5378005, 20.9717036 ], [ -156.539618499999989, 20.969465600000017 ], [ -156.5386145, 20.969612600000033 ], [ -156.538011499999982, 20.966002600000031 ], [ -156.535758499999986, 20.966612600000033 ], [ -156.534520499999985, 20.965336600000018 ], [ -156.536320499999988, 20.965588599999975 ], [ -156.5359435, 20.9632116 ], [ -156.5381255, 20.963384600000019 ], [ -156.540550500000023, 20.968174600000022 ] ] ] } },
{ "type": "Feature", "properties": { "state_po": "HI", "congressional_district": "HI-02", "pwsid": "HI0000251", "pws_name": "MAHANALUA NUI SUBDIVISON", "population_served_count": 606, "model_method": "Random Forest", "verification_status": "", "symbology_field": "Modeled", "intersection_area_sq_km": 1.0115948859355937 }, "geometry": { "type": "Polygon", "coordinates": [ [ [ -156.6398064, 20.8451616 ], [ -156.6437664, 20.844414600000011 ], [ -156.6475844, 20.853842599999979 ], [ -156.6434064, 20.855318599999979 ], [ -156.639950399999975, 20.852513600000037 ], [ -156.6366124, 20.8534986 ], [ -156.63490939999997, 20.8476276 ], [ -156.6378475, 20.846112600000016 ], [ -156.6393554, 20.842678600000013 ], [ -156.6398064, 20.8451616 ] ] ] } },
{ "type": "Feature", "properties": { "state_po": "HI", "congressional_district": "HI-02", "pwsid": "HI0000252", "pws_name": "WEST KUIAHA MEADOWS", "population_served_count": 60, "model_method": "Random Forest", "verification_status": "", "symbology_field": "Modeled", "intersection_area_sq_km": 3.9055238836751149 }, "geometry": { "type": "Polygon", "coordinates": [ [ [ -156.3024556, 20.9198956 ], [ -156.2968026, 20.918524600000019 ], [ -156.293640599999975, 20.922079600000032 ], [ -156.2910086, 20.922757599999986 ], [ -156.290311599999967, 20.919152599999975 ], [ -156.284944599999989, 20.9177436 ], [ -156.2841496, 20.9072536 ], [ -156.287143599999979, 20.9030736 ], [ -156.2898716, 20.901684600000014 ], [ -156.2932466, 20.9024616 ], [ -156.29372859999998, 20.904081600000033 ], [ -156.298984599999983, 20.903490600000019 ], [ -156.300852599999985, 20.908101599999977 ], [ -156.3052356, 20.907443599999986 ], [ -156.310168600000026, 20.916070600000044 ], [ -156.3050656, 20.919579600000038 ], [ -156.303678600000012, 20.917603599999975 ], [ -156.3024556, 20.9198956 ] ] ] } },
{ "type": "Feature", "properties": { "state_po": "HI", "congressional_district": "HI-02", "pwsid": "HI0000254", "pws_name": "MAUNAOLU PLANTATION", "population_served_count": 100, "model_method": "Random Forest", "verification_status": "", "symbology_field": "Modeled", "intersection_area_sq_km": 12.885941364202134 }, "geometry": { "type": "Polygon", "coordinates": [ [ [ -156.35294159999998, 20.875181600000023 ], [ -156.3453606, 20.880608600000024 ], [ -156.348201599999953, 20.882405599999952 ], [ -156.349933599999986, 20.881714600000031 ], [ -156.351971599999985, 20.886317599999973 ], [ -156.3455376, 20.886184600000021 ], [ -156.343200599999989, 20.8840956 ], [ -156.341894599999989, 20.8863216 ], [ -156.344094599999977, 20.8884776 ], [ -156.3434676, 20.8911806 ], [ -156.3416466, 20.891846599999973 ], [ -156.3499266, 20.8992616 ], [ -156.347360599999973, 20.905264600000031 ], [ -156.349164600000023, 20.91658659999996 ], [ -156.343867599999982, 20.9194946 ], [ -156.342121599999984, 20.925411600000018 ], [ -156.334492599999976, 20.923551599999968 ], [ -156.333398599999981, 20.921872600000025 ], [ -156.334279599999974, 20.917432600000019 ], [ -156.3293856, 20.914890599999961 ], [ -156.3308356, 20.9130136 ], [ -156.329309599999988, 20.911252599999987 ], [ -156.3287296, 20.903278599999982 ], [ -156.3271896, 20.9027996 ], [ -156.324303599999979, 20.893963599999982 ], [ -156.3226716, 20.893236599999973 ], [ -156.323175599999985, 20.883949600000019 ], [ -156.3249606, 20.8800906 ], [ -156.321451599999989, 20.87683860000001 ], [ -156.321351599999986, 20.874464600000021 ], [ -156.3155016, 20.8710236 ], [ -156.318255599999986, 20.8720626 ], [ -156.326309599999973, 20.871371599999968 ], [ -156.3283856, 20.873427599999978 ], [ -156.3352246, 20.8685076 ], [ -156.3384556, 20.8739456 ], [ -156.340893600000015, 20.8729306 ], [ -156.3379646, 20.868789599999968 ], [ -156.341098599999981, 20.86819460000001 ], [ -156.343576599999977, 20.865505600000013 ], [ -156.3498276, 20.8741016 ], [ -156.3518766, 20.8735296 ], [ -156.35294159999998, 20.875181600000023 ] ] ] } },
{ "type": "Feature", "properties": { "state_po": "HI", "congressional_district": "HI-02", "pwsid": "HI0000256", "pws_name": "MAUI HIGHLANDS", "population_served_count": 26, "model_method": "Random Forest", "verification_status": "", "symbology_field": "Modeled", "intersection_area_sq_km": 8.6547314609961639 }, "geometry": { "type": "Polygon", "coordinates": [ [ [ -156.4565105, 20.782208600000018 ], [ -156.453211499999981, 20.786628600000022 ], [ -156.4470215, 20.787154600000012 ], [ -156.447546499999987, 20.785538599999974 ], [ -156.4409585, 20.7823456 ], [ -156.4284135, 20.7821446 ], [ -156.421485499999989, 20.776235600000046 ], [ -156.421575500000017, 20.7691406 ], [ -156.4310975, 20.762697600000028 ], [ -156.429088499999978, 20.7597336 ], [ -156.4301855, 20.7573146 ], [ -156.434998500000034, 20.755194600000017 ], [ -156.4350545, 20.748272599999989 ], [ -156.440477499999957, 20.7496056 ], [ -156.440105499999987, 20.7506896 ], [ -156.443358499999988, 20.7531236 ], [ -156.4461465, 20.7487446 ], [ -156.453447499999982, 20.775395600000021 ], [ -156.446070499999962, 20.7742446 ], [ -156.446996499999983, 20.7800356 ], [ -156.4478455, 20.781734600000014 ], [ -156.4565105, 20.782208600000018 ] ] ] } },
{ "type": "Feature", "properties": { "state_po": "HI", "congressional_district": "HI-02", "pwsid": "HI0000266", "pws_name": "BALDWIN RANCH ESTATES", "population_served_count": 32, "model_method": "Random Forest", "verification_status": "", "symbology_field": "Modeled", "intersection_area_sq_km": 0.032900794640355717 }, "geometry": { "type": "Polygon", "coordinates": [ [ [ -156.3262636, 20.8113416 ], [ -156.3273666, 20.8131656 ], [ -156.325776600000012, 20.8139336 ], [ -156.3262636, 20.8113416 ] ] ] } },
{ "type": "Feature", "properties": { "state_po": "HI", "congressional_district": "HI-02", "pwsid": "HI0000303", "pws_name": "KUNIA VILLAGE", "population_served_count": 650, "model_method": "Random Forest", "verification_status": "", "symbology_field": "Modeled", "intersection_area_sq_km": 0.015082324377105241 }, "geometry": { "type": "Polygon", "coordinates": [ [ [ -158.061751099999952, 21.4601475 ], [ -158.0613851, 21.461568499999974 ], [ -158.05995009999998, 21.4601395 ], [ -158.061751099999952, 21.4601475 ] ] ] } },
{ "type": "Feature", "properties": { "state_po": "HI", "congressional_district": "HI-02", "pwsid": "HI0000309", "pws_name": "WAIALUA SUGAR PUMP 2", "population_served_count": 400, "model_method": "Random Forest", "verification_status": "", "symbology_field": "Modeled", "intersection_area_sq_km": 0.56731504800793642 }, "geometry": { "type": "Polygon", "coordinates": [ [ [ -158.127818, 21.5553245 ], [ -158.12628, 21.563500499999989 ], [ -158.123987, 21.56659149999998 ], [ -158.119726, 21.56499250000001 ], [ -158.120122, 21.559923499999989 ], [ -158.121785, 21.558746500000019 ], [ -158.122777, 21.5602395 ], [ -158.12299, 21.558351500000011 ], [ -158.127818, 21.5553245 ] ] ] } },
{ "type": "Feature", "properties": { "state_po": "HI", "congressional_district": "HI-02", "pwsid": "HI0000315", "pws_name": "KAHUKU AIR BASE", "population_served_count": 75, "model_method": "Random Forest", "verification_status": "", "symbology_field": "Modeled", "intersection_area_sq_km": 1.7407961193686519 }, "geometry": { "type": "Polygon", "coordinates": [ [ [ -157.933107, 21.674061 ], [ -157.942805099999987, 21.672723399999981 ], [ -157.9472701, 21.676591400000017 ], [ -157.9527171, 21.677781400000029 ], [ -157.951821099999989, 21.6904614 ], [ -157.94996409999996, 21.692403400000028 ], [ -157.940409099999982, 21.678029399999986 ], [ -157.933107, 21.674061 ] ] ] } },
{ "type": "Feature", "properties": { "state_po": "HI", "congressional_district": "HI-02", "pwsid": "HI0000201", "pws_name": "HANA WATER SYSTEMS - SOUTH", "population_served_count": 816, "model_method": "Random Forest", "verification_status": "", "symbology_field": "Modeled", "intersection_area_sq_km": 1.1738399478324204 }, "geometry": { "type": "Polygon", "coordinates": [ [ [ -155.9870846, 20.752378600000014 ], [ -155.993288599999971, 20.761495599999989 ], [ -155.9958906, 20.768365599999942 ], [ -155.9977496, 20.7698516 ], [ -155.9933366, 20.770875599999982 ], [ -155.988116599999984, 20.768761599999973 ], [ -155.984932599999979, 20.764974599999981 ], [ -155.9889406, 20.7599596 ], [ -155.9866496, 20.7584066 ], [ -155.984199599999982, 20.75296059999998 ], [ -155.9870846, 20.752378600000014 ] ] ] } },
{ "type": "Feature", "properties": { "state_po": "HI", "congressional_district": "HI-02", "pwsid": "HI0000165", "pws_name": "KONA WATER SERVICE COMPANY", "population_served_count": 260, "model_method": "Random Forest", "verification_status": "", "symbology_field": "Modeled", "intersection_area_sq_km": 0.022718501773054227 }, "geometry": { "type": "Polygon", "coordinates": [ [ [ -155.99611969999998, 19.818658 ], [ -155.9946497, 19.819078 ], [ -155.993719700000014, 19.818058 ], [ -155.995699699999989, 19.817308 ], [ -155.99611969999998, 19.818658 ] ] ] } },
{ "type": "Feature", "properties": { "state_po": "HI", "congressional_district": "HI-02", "pwsid": "HI0000164", "pws_name": "KAWAIHAE UNIT #1", "population_served_count": 193, "model_method": "Random Forest", "verification_status": "", "symbology_field": "Modeled", "intersection_area_sq_km": 0.15940525189361027 }, "geometry": { "type": "MultiPolygon", "coordinates": [ [ [ [ -155.8381597, 20.0486979 ], [ -155.8365497, 20.04936790000005 ], [ -155.8351797, 20.046527899999983 ], [ -155.8363197, 20.045507900000018 ], [ -155.8381597, 20.0486979 ] ] ], [ [ [ -155.842659699999984, 20.0598879 ], [ -155.8412597, 20.062977899999971 ], [ -155.839649699999967, 20.063457899999982 ], [ -155.841039699999982, 20.0605979 ], [ -155.842659699999984, 20.0598879 ] ] ] ] } },
{ "type": "Feature", "properties": { "state_po": "HI", "congressional_district": "HI-02", "pwsid": "HI0000163", "pws_name": "KAUPULEHU", "population_served_count": 1945, "model_method": "Random Forest", "verification_status": "", "symbology_field": "Modeled", "intersection_area_sq_km": 1.9037342317170463 }, "geometry": { "type": "MultiPolygon", "coordinates": [ [ [ [ -155.998539699999981, 19.811398 ], [ -155.997259699999972, 19.814668 ], [ -155.99175969999996, 19.807738 ], [ -155.995379699999972, 19.804708 ], [ -155.998379699999987, 19.806818 ], [ -156.0021597, 19.805908 ], [ -156.0017197, 19.809218 ], [ -155.998539699999981, 19.811398 ] ] ], [ [ [ -155.9892697, 19.820738 ], [ -155.9883337, 19.824022 ], [ -155.9834927, 19.824756 ], [ -155.9771097, 19.823438 ], [ -155.975899699999985, 19.821418 ], [ -155.9786897, 19.815028 ], [ -155.981429699999978, 19.813838 ], [ -155.9867597, 19.814828 ], [ -155.9892697, 19.820738 ] ] ] ] } },
{ "type": "Feature", "properties": { "state_po": "HI", "congressional_district": "HI-02", "pwsid": "HI0000162", "pws_name": "WAIKI'I RANCH", "population_served_count": 102, "model_method": "Random Forest", "verification_status": "", "symbology_field": "Modeled", "intersection_area_sq_km": 0.062436474106866403 }, "geometry": { "type": "Polygon", "coordinates": [ [ [ -155.535729799999956, 19.755898 ], [ -155.5383598, 19.756448 ], [ -155.5381698, 19.757618 ], [ -155.534639799999979, 19.758498 ], [ -155.535729799999956, 19.755898 ] ] ] } },
{ "type": "Feature", "properties": { "state_po": "HI", "congressional_district": "HI-02", "pwsid": "HI0000160", "pws_name": "LALAMILO", "population_served_count": 1895, "model_method": "Random Forest", "verification_status": "", "symbology_field": "Modeled", "intersection_area_sq_km": 11.191814519711583 }, "geometry": { "type": "MultiPolygon", "coordinates": [ [ [ [ -155.814065699999986, 19.999589900000029 ], [ -155.809439699999984, 20.0048079 ], [ -155.800999700000034, 20.0045479 ], [ -155.799329699999987, 20.002927899999989 ], [ -155.8082497, 19.999257899999986 ], [ -155.814065699999986, 19.999589900000029 ] ] ], [ [ [ -155.821069699999981, 20.024884899999954 ], [ -155.8220997, 20.011397899999963 ], [ -155.818389699999983, 20.0074779 ], [ -155.8142997, 20.006237900000023 ], [ -155.816239699999983, 19.9970379 ], [ -155.82219969999997, 19.99421790000001 ], [ -155.827129700000029, 19.9763179 ], [ -155.827069699999981, 19.9746779 ], [ -155.8244597, 19.976217899999952 ], [ -155.820499699999971, 19.974397899999978 ], [ -155.820549699999958, 19.97242790000001 ], [ -155.824179699999974, 19.969757899999983 ], [ -155.8295297, 19.959307900000042 ], [ -155.8481797, 19.94652790000001 ], [ -155.8549697, 19.943387899999987 ], [ -155.856698699999953, 19.951773899999981 ], [ -155.861865699999981, 19.953367899999989 ], [ -155.8614767, 19.955134899999972 ], [ -155.8527167, 19.966770900000018 ], [ -155.84580269999995, 19.968390899999985 ], [ -155.8392917, 19.97322889999997 ], [ -155.835496699999965, 19.972393899999979 ], [ -155.8315217, 19.974154900000027 ], [ -155.832204843661799, 19.977702940250648 ], [ -155.8294617, 19.9792839 ], [ -155.8284847, 19.982371900000057 ], [ -155.831279699999953, 19.985237900000016 ], [ -155.8270197, 19.98974590000002 ], [ -155.8259957, 19.993817899999961 ], [ -155.82806134125272, 20.002002021082919 ], [ -155.8250827, 20.0043319 ], [ -155.826836467418019, 20.007424239209659 ], [ -155.8251237, 20.010411899999959 ], [ -155.824998, 20.01577 ], [ -155.8224807, 20.018924900000023 ], [ -155.823063042653786, 20.024946546944804 ], [ -155.821069699999981, 20.024884899999954 ] ] ] ] } },
{ "type": "Feature", "properties": { "state_po": "HI", "congressional_district": "HI-02", "pwsid": "HI0000156", "pws_name": "HAWAIIAN SHORES", "population_served_count": 1360, "model_method": "Random Forest", "verification_status": "", "symbology_field": "Modeled", "intersection_area_sq_km": 0.22150611733039832 }, "geometry": { "type": "Polygon", "coordinates": [ [ [ -154.953139899999968, 19.615918 ], [ -154.949229899999978, 19.619008 ], [ -154.94681989999998, 19.617548 ], [ -154.9484099, 19.613878 ], [ -154.949859899999979, 19.614698 ], [ -154.9507399, 19.613228 ], [ -154.953139899999968, 19.615918 ] ] ] } },
{ "type": "Feature", "properties": { "state_po": "HI", "congressional_district": "HI-02", "pwsid": "HI0000154", "pws_name": "HAKALAU-WAILEA", "population_served_count": 402, "model_method": "Random Forest", "verification_status": "", "symbology_field": "Modeled", "intersection_area_sq_km": 1.9802843388343665 }, "geometry": { "type": "Polygon", "coordinates": [ [ [ -155.1191289, 19.8830689 ], [ -155.1222869, 19.882743900000015 ], [ -155.121349899999984, 19.883257899999979 ], [ -155.124160899999964, 19.8878669 ], [ -155.1257769, 19.8880769 ], [ -155.1342589, 19.8826919 ], [ -155.1349399, 19.8836079 ], [ -155.140949899999953, 19.8777479 ], [ -155.142469799999986, 19.8813379 ], [ -155.139219900000029, 19.8858379 ], [ -155.1261299, 19.893807899999956 ], [ -155.1300099, 19.8993939 ], [ -155.128711899999985, 19.900399899999957 ], [ -155.125421, 19.900528 ], [ -155.118992, 19.888246 ], [ -155.1191289, 19.8830689 ] ] ] } },
{ "type": "Feature", "properties": { "state_po": "HI", "congressional_district": "HI-02", "pwsid": "HI0000151", "pws_name": "KOHALA RANCH WATER CO.", "population_served_count": 850, "model_method": "Random Forest", "verification_status": "", "symbology_field": "Modeled", "intersection_area_sq_km": 7.8216882778946069 }, "geometry": { "type": "Polygon", "coordinates": [ [ [ -155.8466707, 20.0627139 ], [ -155.858229699999953, 20.0766379 ], [ -155.853939699999984, 20.0778079 ], [ -155.851629699999989, 20.081547900000036 ], [ -155.8533797, 20.0843479 ], [ -155.848889699999972, 20.08618789999996 ], [ -155.846609699999959, 20.0921079 ], [ -155.843889700000034, 20.0915279 ], [ -155.8428997, 20.089767899999966 ], [ -155.835869699999989, 20.088257900000013 ], [ -155.8337397, 20.0846579 ], [ -155.8289797, 20.084247899999987 ], [ -155.81759969999996, 20.0898179 ], [ -155.8150097, 20.088307900000011 ], [ -155.8105497, 20.0896979 ], [ -155.808357699999959, 20.094315900000026 ], [ -155.8059877, 20.094231900000025 ], [ -155.801122699999979, 20.09834190000003 ], [ -155.7903897, 20.09961790000002 ], [ -155.7883597, 20.103967900000018 ], [ -155.7838897, 20.1065579 ], [ -155.779540699999984, 20.101551900000011 ], [ -155.792869699999983, 20.0948429 ], [ -155.803595699999988, 20.0928659 ], [ -155.805870700000014, 20.091783900000021 ], [ -155.8059527, 20.0893569 ], [ -155.8249937, 20.080956900000015 ], [ -155.8466707, 20.0627139 ] ] ] } },
{ "type": "Feature", "properties": { "state_po": "HI", "congressional_district": "HI-02", "pwsid": "HI0000150", "pws_name": "NAPUU WATER INC.", "population_served_count": 468, "model_method": "Random Forest", "verification_status": "", "symbology_field": "Modeled", "intersection_area_sq_km": 0.55885651773810663 }, "geometry": { "type": "Polygon", "coordinates": [ [ [ -155.840519700000016, 19.810178 ], [ -155.8355197, 19.818238 ], [ -155.832369699999987, 19.818808 ], [ -155.832359699999955, 19.820498 ], [ -155.8311497, 19.820548 ], [ -155.82992969999998, 19.818278 ], [ -155.837019699999985, 19.808488 ], [ -155.840519700000016, 19.810178 ] ] ] } },
{ "type": "Feature", "properties": { "state_po": "HI", "congressional_district": "HI-02", "pwsid": "HI0000139", "pws_name": "NIULII", "population_served_count": 254, "model_method": "Random Forest", "verification_status": "", "symbology_field": "Modeled", "intersection_area_sq_km": 0.44630051079045335 }, "geometry": { "type": "Polygon", "coordinates": [ [ [ -155.7548597, 20.209488900000018 ], [ -155.7509397, 20.221097800000031 ], [ -155.748729699999984, 20.221397799999977 ], [ -155.751126699999986, 20.216022800000012 ], [ -155.749864699999989, 20.211993899999985 ], [ -155.7515947, 20.207977900000035 ], [ -155.75283970000001, 20.206846899999984 ], [ -155.7548597, 20.209488900000018 ] ] ] } },
{ "type": "Feature", "properties": { "state_po": "HI", "congressional_district": "HI-02", "pwsid": "HI0000134", "pws_name": "PAAUILO", "population_served_count": 716, "model_method": "Decision Tree", "verification_status": "", "symbology_field": "Modeled", "intersection_area_sq_km": 1.7410572345645534 }, "geometry": { "type": "Polygon", "coordinates": [ [ [ -155.379416799999973, 20.029033900000016 ], [ -155.3624318, 20.0517209 ], [ -155.3605498, 20.0526909 ], [ -155.355626799999982, 20.0500559 ], [ -155.374493799999982, 20.028312899999989 ], [ -155.379416799999973, 20.029033900000016 ] ] ] } },
{ "type": "Feature", "properties": { "state_po": "HI", "congressional_district": "HI-02", "pwsid": "HI0000102", "pws_name": "LAUPAHOEHOE-KAPEHU", "population_served_count": 1169, "model_method": "Random Forest", "verification_status": "", "symbology_field": "Modeled", "intersection_area_sq_km": 4.8846520579434509 }, "geometry": { "type": "Polygon", "coordinates": [ [ [ -155.2307208, 19.9846419 ], [ -155.2316438, 19.983585899999941 ], [ -155.2253168, 19.979945900000011 ], [ -155.2297898, 19.9800779 ], [ -155.229059799999987, 19.978417900000032 ], [ -155.2364298, 19.965957900000042 ], [ -155.2401008, 19.9649259 ], [ -155.242390799999981, 19.966942899999964 ], [ -155.246116799999982, 19.96022489999994 ], [ -155.248199799999981, 19.960247899999985 ], [ -155.2495898, 19.964167899999964 ], [ -155.2489798, 19.968087900000015 ], [ -155.243659799999989, 19.9711279 ], [ -155.243459799999982, 19.973577900000031 ], [ -155.2469998, 19.976027899999952 ], [ -155.2416778, 19.986435900000018 ], [ -155.244383799999952, 19.9884869 ], [ -155.2475188, 19.986407899999978 ], [ -155.2441298, 19.993507900000019 ], [ -155.248840799999982, 19.993517900000029 ], [ -155.2508838, 19.995263900000012 ], [ -155.255009799999982, 19.9926279 ], [ -155.258059799999984, 19.996307900000023 ], [ -155.2624698, 19.996137900000015 ], [ -155.2570498, 20.001227900000032 ], [ -155.258547799999974, 20.00273790000001 ], [ -155.2606098, 20.003827900000022 ], [ -155.2644898, 20.0018879 ], [ -155.2653688, 20.002573899999987 ], [ -155.260616352432862, 20.00577914918971 ], [ -155.251596, 20.00066 ], [ -155.247687800000023, 19.9946989 ], [ -155.239985, 19.993145 ], [ -155.240802799999955, 19.990995899999977 ], [ -155.238328, 19.987403 ], [ -155.2307208, 19.9846419 ] ] ] } },
{ "type": "Feature", "properties": { "state_po": "HI", "congressional_district": "HI-02", "pwsid": "HI0000104", "pws_name": "OOKALA (DWS)", "population_served_count": 264, "model_method": "Random Forest", "verification_status": "", "symbology_field": "Modeled", "intersection_area_sq_km": 0.45529136015792332 }, "geometry": { "type": "Polygon", "coordinates": [ [ [ -155.273259799999977, 20.0094979 ], [ -155.27729979999998, 20.01112789999997 ], [ -155.2857568, 20.009907900000012 ], [ -155.286207799999971, 20.012374899999958 ], [ -155.284509800000023, 20.0145479 ], [ -155.2778798, 20.0140779 ], [ -155.272299800000013, 20.011440899999975 ], [ -155.274079799999953, 20.0106579 ], [ -155.273259799999977, 20.0094979 ] ] ] } },
{ "type": "Feature", "properties": { "state_po": "HI", "congressional_district": "HI-02", "pwsid": "HI0000105", "pws_name": "HONOMU", "population_served_count": 645, "model_method": "Decision Tree", "verification_status": "", "symbology_field": "Modeled", "intersection_area_sq_km": 10.615791817621378 }, "geometry": { "type": "Polygon", "coordinates": [ [ [ -155.110525, 19.876198 ], [ -155.1026429, 19.866258900000012 ], [ -155.1072309, 19.8644309 ], [ -155.1098979, 19.866056900000022 ], [ -155.1135529, 19.864586900000017 ], [ -155.113807899999983, 19.8621759 ], [ -155.1188579, 19.860328900000013 ], [ -155.123149899999987, 19.8547069 ], [ -155.1272419, 19.852983900000016 ], [ -155.128915899999981, 19.8553259 ], [ -155.13642489999998, 19.853516900000017 ], [ -155.1235599, 19.8592179 ], [ -155.11685989999998, 19.8661579 ], [ -155.1176499, 19.8670279 ], [ -155.1223799, 19.864717899999984 ], [ -155.121496900000011, 19.867248900000018 ], [ -155.1185419, 19.868042900000013 ], [ -155.1166809, 19.8710439 ], [ -155.116721899999987, 19.8721559 ], [ -155.119109899999955, 19.872117900000013 ], [ -155.1160099, 19.873717900000031 ], [ -155.1169769, 19.875556900000014 ], [ -155.1228299, 19.871977900000022 ], [ -155.1231599, 19.873017900000015 ], [ -155.117599899999988, 19.8782679 ], [ -155.115388900000028, 19.8785669 ], [ -155.120276900000022, 19.883333900000036 ], [ -155.123128899999983, 19.8822949 ], [ -155.121637900000025, 19.881377900000018 ], [ -155.1245999, 19.877567900000013 ], [ -155.1293509, 19.8768279 ], [ -155.1336499, 19.873337900000013 ], [ -155.1417299, 19.8706979 ], [ -155.1399999, 19.866847900000014 ], [ -155.151889799999964, 19.8604679 ], [ -155.1528798, 19.858677900000011 ], [ -155.1562198, 19.8597479 ], [ -155.158798799999971, 19.858442900000011 ], [ -155.15981979999998, 19.860767900000013 ], [ -155.162879799999985, 19.8615479 ], [ -155.161729799999989, 19.863307899999967 ], [ -155.164020800000031, 19.8668969 ], [ -155.1637498, 19.868507900000015 ], [ -155.1587398, 19.870097899999983 ], [ -155.150579799999974, 19.8771479 ], [ -155.143359799999985, 19.880377899999978 ], [ -155.139219900000029, 19.8858379 ], [ -155.1261299, 19.893807899999956 ], [ -155.1357989, 19.9072339 ], [ -155.134145900000021, 19.908009900000028 ], [ -155.128416642313482, 19.903706772571159 ], [ -155.128519899999986, 19.900184900000024 ], [ -155.125421, 19.900528 ], [ -155.118992, 19.888246 ], [ -155.1191289, 19.8830689 ], [ -155.109706019393428, 19.878705180480324 ], [ -155.110525, 19.876198 ] ] ] } },
{ "type": "Feature", "properties": { "state_po": "HI", "congressional_district": "HI-02", "pwsid": "HI0000106", "pws_name": "PEPEEKEO", "population_served_count": 1450, "model_method": "Random Forest", "verification_status": "", "symbology_field": "Modeled", "intersection_area_sq_km": 2.8692968539225547 }, "geometry": { "type": "Polygon", "coordinates": [ [ [ -155.1171019, 19.8264779 ], [ -155.115629899999988, 19.8278279 ], [ -155.1171099, 19.8313679 ], [ -155.114189900000014, 19.8324379 ], [ -155.114819899999986, 19.8362879 ], [ -155.1100999, 19.838927899999977 ], [ -155.1014499, 19.839397900000034 ], [ -155.1003299, 19.836817899999986 ], [ -155.102649899999989, 19.836947899999988 ], [ -155.1037409, 19.835184900000016 ], [ -155.1009159, 19.833996900000017 ], [ -155.093305899999962, 19.834519899999989 ], [ -155.092799899999989, 19.82941790000001 ], [ -155.0963399, 19.82935789999998 ], [ -155.097089899999986, 19.827797900000025 ], [ -155.0949599, 19.82429789999998 ], [ -155.1015999, 19.825527900000019 ], [ -155.10452989999996, 19.8239579 ], [ -155.1042909, 19.827523899999978 ], [ -155.105737899999951, 19.827635899999983 ], [ -155.115137899999979, 19.8238019 ], [ -155.1171019, 19.8264779 ] ] ] } },
{ "type": "Feature", "properties": { "state_po": "HI", "congressional_district": "HI-02", "pwsid": "HI0000107", "pws_name": "PAPAIKOU", "population_served_count": 2203, "model_method": "Decision Tree", "verification_status": "", "symbology_field": "Modeled", "intersection_area_sq_km": 8.3278000851863236 }, "geometry": { "type": "Polygon", "coordinates": [ [ [ -155.090340899999973, 19.7568099 ], [ -155.0925699, 19.7559879 ], [ -155.0960299, 19.757737900000041 ], [ -155.098619899999989, 19.762517899999981 ], [ -155.098789899999986, 19.764627900000022 ], [ -155.093567899999982, 19.7675529 ], [ -155.092823899999985, 19.7812839 ], [ -155.0960169, 19.7831979 ], [ -155.104070899999982, 19.7823539 ], [ -155.1031739, 19.7846449 ], [ -155.0992699, 19.7848079 ], [ -155.106209899999982, 19.788937900000029 ], [ -155.1120899, 19.7867479 ], [ -155.1147609, 19.78748790000002 ], [ -155.112299899999982, 19.789847900000023 ], [ -155.0994969, 19.790397899999981 ], [ -155.0961299, 19.7936679 ], [ -155.098409900000036, 19.793117899999956 ], [ -155.105409899999984, 19.793607900000012 ], [ -155.116631899999987, 19.789407900000032 ], [ -155.1217729, 19.789223899999964 ], [ -155.1238299, 19.790827900000014 ], [ -155.131692899999962, 19.79065690000002 ], [ -155.134418899999986, 19.791677899999982 ], [ -155.126291899999984, 19.79169989999998 ], [ -155.120901899999978, 19.79382690000002 ], [ -155.11608590000003, 19.792710900000021 ], [ -155.111869899999988, 19.79461789999997 ], [ -155.0995269, 19.7946649 ], [ -155.0983809, 19.7935039 ], [ -155.0964089, 19.79444490000002 ], [ -155.097426900000016, 19.795904899999982 ], [ -155.110319899999979, 19.795557900000023 ], [ -155.1143529, 19.7981739 ], [ -155.109969899999953, 19.798617899999989 ], [ -155.110009899999966, 19.8008279 ], [ -155.10682989999998, 19.8007079 ], [ -155.106729900000033, 19.8025859 ], [ -155.098712899999981, 19.8011529 ], [ -155.102764899999983, 19.8106189 ], [ -155.1139699, 19.812957899999979 ], [ -155.1115989, 19.818753900000011 ], [ -155.100963899999982, 19.8173969 ], [ -155.0979099, 19.8142479 ], [ -155.095379899999983, 19.8165579 ], [ -155.092869899999982, 19.8158479 ], [ -155.0941799, 19.8111579 ], [ -155.0960499, 19.810437899999989 ], [ -155.0919099, 19.805987900000019 ], [ -155.0936499, 19.804337899999986 ], [ -155.0925229, 19.8039209 ], [ -155.093397900000014, 19.80283889999998 ], [ -155.093319899999983, 19.802003900000017 ], [ -155.090268899999984, 19.8042079 ], [ -155.086509649420066, 19.803471897687359 ], [ -155.087800513872821, 19.797193362824942 ], [ -155.090144899999984, 19.794765899999987 ], [ -155.089687540657394, 19.79113682092321 ], [ -155.0916059, 19.790332900000013 ], [ -155.0901409, 19.7849909 ], [ -155.088862899999981, 19.783369899999972 ], [ -155.086129358562204, 19.783239197824468 ], [ -155.0881929, 19.778502899999957 ], [ -155.0873029, 19.77525989999997 ], [ -155.089593899999983, 19.773106899999988 ], [ -155.090784899999989, 19.76872390000004 ], [ -155.088849, 19.765617 ], [ -155.090340899999973, 19.7568099 ] ], [ [ -155.0943499, 19.788617899999988 ], [ -155.0924559, 19.789308899999952 ], [ -155.094589899999988, 19.791447899999987 ], [ -155.09476989999996, 19.790067900000047 ], [ -155.0943499, 19.788617899999988 ] ], [ [ -155.0954999, 19.8130679 ], [ -155.0948879, 19.812500899999968 ], [ -155.0947799, 19.81388789999998 ], [ -155.0954999, 19.8130679 ] ] ] } },
{ "type": "Feature", "properties": { "state_po": "HI", "congressional_district": "HI-02", "pwsid": "HI0000108", "pws_name": "WAIOHINU-NAALEHU", "population_served_count": 2948, "model_method": "Random Forest", "verification_status": "", "symbology_field": "Modeled", "intersection_area_sq_km": 14.771061456102618 }, "geometry": { "type": "Polygon", "coordinates": [ [ [ -155.7982297, 19.094188100000025 ], [ -155.8112817, 19.1001911 ], [ -155.804619699999989, 19.1011381 ], [ -155.7860627, 19.122182100000025 ], [ -155.7721597, 19.163898100000033 ], [ -155.771199699999954, 19.1614181 ], [ -155.765579699999961, 19.163138100000022 ], [ -155.7651497, 19.161538100000023 ], [ -155.7670297, 19.1609381 ], [ -155.7651697, 19.155768099999989 ], [ -155.7687397, 19.1546281 ], [ -155.7699797, 19.1580181 ], [ -155.7734897, 19.156888099999982 ], [ -155.7722597, 19.153498100000039 ], [ -155.775799699999965, 19.152338099999973 ], [ -155.7745597, 19.148958099999941 ], [ -155.7675097, 19.151238099999976 ], [ -155.7637197, 19.1434381 ], [ -155.764579699999985, 19.1424681 ], [ -155.76590969999998, 19.144118099999989 ], [ -155.7685697, 19.143268099999961 ], [ -155.7648897, 19.133098099999987 ], [ -155.761359699999986, 19.134248100000029 ], [ -155.7638097, 19.141038100000024 ], [ -155.7602597, 19.142188100000027 ], [ -155.755329700000033, 19.128608100000029 ], [ -155.751779699999986, 19.129758099999982 ], [ -155.753019699999982, 19.133168099999978 ], [ -155.7459897, 19.135478100000022 ], [ -155.7447497, 19.132068100000012 ], [ -155.748259699999977, 19.1309081 ], [ -155.747039699999988, 19.127518099999989 ], [ -155.754109699999987, 19.125218099999973 ], [ -155.752879700000022, 19.1218281 ], [ -155.756439699999987, 19.120658100000021 ], [ -155.7552297, 19.117278100000011 ], [ -155.751679699999983, 19.118458100000026 ], [ -155.750419699999981, 19.1150281 ], [ -155.7645597, 19.110418100000039 ], [ -155.765799699999974, 19.113848100000027 ], [ -155.7678597, 19.11319809999998 ], [ -155.769339699999989, 19.1126881 ], [ -155.7681097, 19.1092681 ], [ -155.7751997, 19.106958099999979 ], [ -155.777319699999964, 19.11009810000003 ], [ -155.7799397, 19.10921810000001 ], [ -155.778709699999979, 19.105828099999972 ], [ -155.785809699999987, 19.1034981 ], [ -155.7870297, 19.1069281 ], [ -155.78345969999998, 19.108108099999978 ], [ -155.7840497, 19.109748100000019 ], [ -155.7859397, 19.1148681 ], [ -155.7894997, 19.113668100000016 ], [ -155.7882697, 19.110318100000043 ], [ -155.791819700000019, 19.109148100000017 ], [ -155.79058969999997, 19.105758100000017 ], [ -155.7940997, 19.104598100000011 ], [ -155.79285969999998, 19.1011881 ], [ -155.7998897, 19.098898100000014 ], [ -155.7982297, 19.094188100000025 ] ] ] } },
{ "type": "Feature", "properties": { "state_po": "HI", "congressional_district": "HI-02", "pwsid": "HI0000109", "pws_name": "PAHALA", "population_served_count": 1226, "model_method": "Decision Tree", "verification_status": "", "symbology_field": "Modeled", "intersection_area_sq_km": 1.6637400632725372 }, "geometry": { "type": "Polygon", "coordinates": [ [ [ -155.480509800000021, 19.193938100000029 ], [ -155.47939980000001, 19.196498100000014 ], [ -155.482063799999963, 19.1937841 ], [ -155.481189799999981, 19.197936100000017 ], [ -155.4842098, 19.202318099999989 ], [ -155.476726799999966, 19.207627099999954 ], [ -155.472930800000029, 19.204700100000011 ], [ -155.4708358, 19.200110099999982 ], [ -155.474162799999988, 19.192584099999983 ], [ -155.4773198, 19.1892681 ], [ -155.480509800000021, 19.193938100000029 ] ] ] } },
{ "type": "Feature", "properties": { "state_po": "HI", "congressional_district": "HI-02", "pwsid": "HI0000110", "pws_name": "KALAPANA", "population_served_count": 275, "model_method": "Random Forest", "verification_status": "", "symbology_field": "Modeled", "intersection_area_sq_km": 1.2760783237067503 }, "geometry": { "type": "MultiPolygon", "coordinates": [ [ [ [ -154.9659739, 19.358025 ], [ -154.966337899999985, 19.362462 ], [ -154.960418899999979, 19.366002 ], [ -154.958254899999986, 19.36552 ], [ -154.9659739, 19.358025 ] ] ], [ [ [ -154.924529899999982, 19.407018 ], [ -154.92129989999998, 19.407578 ], [ -154.923029899999989, 19.404908 ], [ -154.9198299, 19.399638 ], [ -154.920789900000017, 19.398438 ], [ -154.9219879, 19.398006 ], [ -154.9245789, 19.403427 ], [ -154.924529899999982, 19.407018 ] ] ], [ [ [ -154.9253199, 19.408008 ], [ -154.929559899999987, 19.411108 ], [ -154.925199900000024, 19.414108 ], [ -154.922909899999979, 19.409968 ], [ -154.9253199, 19.408008 ] ] ], [ [ [ -154.966979900000013, 19.411788 ], [ -154.964489899999961, 19.414758 ], [ -154.956859899999984, 19.409838 ], [ -154.954339899999979, 19.412478 ], [ -154.9588159, 19.406256 ], [ -154.966979900000013, 19.411788 ] ] ] ] } },
{ "type": "Feature", "properties": { "state_po": "HI", "congressional_district": "HI-02", "pwsid": "HI0000111", "pws_name": "PAHOA", "population_served_count": 1885, "model_method": "Decision Tree", "verification_status": "", "symbology_field": "Modeled", "intersection_area_sq_km": 22.980613429918545 }, "geometry": { "type": "Polygon", "coordinates": [ [ [ -154.9314899, 19.483081 ], [ -154.9434249, 19.488127 ], [ -154.946422899999988, 19.484591 ], [ -154.9483799, 19.489426 ], [ -154.9507439, 19.490761 ], [ -154.956319899999983, 19.486948 ], [ -154.960789899999952, 19.494078 ], [ -154.953810899999979, 19.49932 ], [ -154.95597989999996, 19.505388 ], [ -154.9635199, 19.514318 ], [ -154.9614699, 19.518278 ], [ -154.959157899999951, 19.513446 ], [ -154.961269899999962, 19.511668 ], [ -154.9590709, 19.513318 ], [ -154.9544549, 19.50488 ], [ -154.9529499, 19.504388 ], [ -154.95413990000003, 19.509268 ], [ -154.9447999, 19.517008 ], [ -154.941379899999987, 19.513328 ], [ -154.9333499, 19.519988 ], [ -154.929599899999971, 19.525848 ], [ -154.9251899, 19.524148 ], [ -154.914869900000014, 19.536118 ], [ -154.9105999, 19.538518 ], [ -154.9282399, 19.549138 ], [ -154.9319499, 19.558308 ], [ -154.938449899999966, 19.562498 ], [ -154.9491169, 19.566111 ], [ -154.937414899999965, 19.580431 ], [ -154.921604900000034, 19.567333 ], [ -154.9153489, 19.575204 ], [ -154.90861289999998, 19.569325 ], [ -154.89604989999998, 19.562848 ], [ -154.893369899999982, 19.561998 ], [ -154.8923199, 19.563258 ], [ -154.8798459, 19.554322 ], [ -154.9008579, 19.536435 ], [ -154.9198999, 19.522668 ], [ -154.937546899999973, 19.514466 ], [ -154.9508209, 19.50308 ], [ -154.9511159, 19.500635 ], [ -154.947752899999983, 19.497522 ], [ -154.946019899999982, 19.49978 ], [ -154.9414429, 19.496024 ], [ -154.9407899, 19.491518 ], [ -154.9304439, 19.488555 ], [ -154.932049899999953, 19.485328 ], [ -154.9314899, 19.483081 ] ], [ [ -154.905699899999973, 19.538248 ], [ -154.90598989999998, 19.538998 ], [ -154.906419899999975, 19.538528 ], [ -154.905699899999973, 19.538248 ] ], [ [ -154.902974900000032, 19.548189 ], [ -154.9011299, 19.549448 ], [ -154.902589899999981, 19.550788 ], [ -154.904139899999961, 19.549258 ], [ -154.902974900000032, 19.548189 ] ] ] } },
{ "type": "Feature", "properties": { "state_po": "HI", "congressional_district": "HI-02", "pwsid": "HI0000114", "pws_name": "PUNALU'U", "population_served_count": 200, "model_method": "Random Forest", "verification_status": "", "symbology_field": "Modeled", "intersection_area_sq_km": 60.671069765042652 }, "geometry": { "type": "MultiPolygon", "coordinates": [ [ [ [ -155.6838478, 18.917787199999978 ], [ -155.6823728, 18.9114192 ], [ -155.678612818869112, 18.910911943969257 ], [ -155.682793, 18.910361 ], [ -155.6838478, 18.917787199999978 ] ] ], [ [ [ -155.677416799999975, 18.9112702 ], [ -155.6731198, 18.91232120000004 ], [ -155.67102079999998, 18.914622200000029 ], [ -155.6702788, 18.919748200000019 ], [ -155.672879799999976, 18.921468200000028 ], [ -155.6756598, 18.920358200000017 ], [ -155.6810898, 18.9229382 ], [ -155.6795498, 18.931748200000044 ], [ -155.6841598, 18.951998199999984 ], [ -155.6820998, 18.9570882 ], [ -155.667109799999963, 18.976558199999982 ], [ -155.666716799999989, 18.9808202 ], [ -155.6608568, 18.9808712 ], [ -155.660800799999976, 18.986572200000023 ], [ -155.651610799999986, 18.984413199999981 ], [ -155.651577799999984, 18.981167200000012 ], [ -155.6446338, 18.981199200000042 ], [ -155.6456158, 18.9894712 ], [ -155.638383799999986, 18.9919912 ], [ -155.630383799999976, 18.988290200000019 ], [ -155.6189928, 18.9800392 ], [ -155.6172708, 18.9773662 ], [ -155.6146708, 18.9765372 ], [ -155.613605800000016, 18.973047199999975 ], [ -155.6124438, 18.972994199999974 ], [ -155.6102998, 18.971590200000037 ], [ -155.6040768, 18.97292120000002 ], [ -155.6026158, 18.977363199999981 ], [ -155.5977198, 18.9831302 ], [ -155.597880799999984, 18.9945342 ], [ -155.608498799999978, 19.0017041 ], [ -155.606616799999983, 19.006164099999985 ], [ -155.606768799999969, 19.012448099999983 ], [ -155.612280799999979, 19.020816100000012 ], [ -155.613392800000014, 19.0262431 ], [ -155.6045748, 19.0332861 ], [ -155.5982138, 19.031485099999969 ], [ -155.588333799999987, 19.0376551 ], [ -155.5874958, 19.034101100000012 ], [ -155.5853768, 19.0323101 ], [ -155.581932800000033, 19.030531099999983 ], [ -155.579742799999963, 19.031706100000029 ], [ -155.573125799999985, 19.0411841 ], [ -155.572224799999987, 19.0461681 ], [ -155.575061799999958, 19.052957099999983 ], [ -155.579001799999958, 19.0545451 ], [ -155.580507799999964, 19.052846100000025 ], [ -155.5834308, 19.057402100000036 ], [ -155.573876800000022, 19.0610761 ], [ -155.566989800000016, 19.068718099999984 ], [ -155.5592998, 19.073908100000043 ], [ -155.555257799999964, 19.0811421 ], [ -155.5533218, 19.080437099999958 ], [ -155.5554128, 19.078807099999981 ], [ -155.553359, 19.072865 ], [ -155.551756, 19.051739 ], [ -155.553892, 19.045524 ], [ -155.565147, 19.02873 ], [ -155.575837, 19.023648 ], [ -155.580017, 19.018045 ], [ -155.584899, 19.004218 ], [ -155.593728, 18.995253 ], [ -155.593764, 18.977782 ], [ -155.596991, 18.974656 ], [ -155.599188, 18.968396 ], [ -155.606030800000013, 18.968947199999981 ], [ -155.609508, 18.966026 ], [ -155.612168800000035, 18.9687412 ], [ -155.612297799999965, 18.9726442 ], [ -155.6142878, 18.9722802 ], [ -155.613332799999966, 18.970739200000018 ], [ -155.6149978, 18.968531199999983 ], [ -155.618359799999979, 18.969768200000043 ], [ -155.6211988, 18.965815200000019 ], [ -155.622366, 18.957637 ], [ -155.627416, 18.948116 ], [ -155.632254, 18.945209 ], [ -155.632643, 18.941388 ], [ -155.638115, 18.936246 ], [ -155.645988, 18.933226 ], [ -155.649604, 18.927277 ], [ -155.65477, 18.92245 ], [ -155.663833, 18.917547 ], [ -155.66905, 18.916474 ], [ -155.673073, 18.912205 ], [ -155.677416799999975, 18.9112702 ] ], [ [ -155.646633799999961, 18.935964199999972 ], [ -155.6451438, 18.9339452 ], [ -155.643404799999985, 18.93509920000001 ], [ -155.646633799999961, 18.935964199999972 ] ], [ [ -155.62305379999998, 18.961174199999988 ], [ -155.622329799999989, 18.9579482 ], [ -155.6225738, 18.962259200000023 ], [ -155.62305379999998, 18.961174199999988 ] ] ] ] } },
{ "type": "Feature", "properties": { "state_po": "HI", "congressional_district": "HI-02", "pwsid": "HI0000133", "pws_name": "KUKUIHAELE", "population_served_count": 483, "model_method": "Decision Tree", "verification_status": "", "symbology_field": "Modeled", "intersection_area_sq_km": 2.9935191583221301 }, "geometry": { "type": "Polygon", "coordinates": [ [ [ -155.5490528, 20.126762900000013 ], [ -155.5521478, 20.1231059 ], [ -155.5530258, 20.1195319 ], [ -155.5627797, 20.1206779 ], [ -155.5634397, 20.1190079 ], [ -155.5600398, 20.115407900000022 ], [ -155.577947699999982, 20.1156879 ], [ -155.5798007, 20.11343290000001 ], [ -155.582877699999983, 20.1152819 ], [ -155.584454699999981, 20.114659900000014 ], [ -155.583770699999974, 20.1178239 ], [ -155.58553569999998, 20.1193709 ], [ -155.5784677, 20.1203959 ], [ -155.565333699999968, 20.1271919 ], [ -155.5560688, 20.128694899999982 ], [ -155.5490528, 20.126762900000013 ] ] ] } },
{ "type": "Feature", "properties": { "state_po": "HI", "congressional_district": "HI-02", "pwsid": "HI0000217", "pws_name": "HANA", "population_served_count": 1284, "model_method": "", "verification_status": "", "symbology_field": "System Sourced", "intersection_area_sq_km": 5.0330037647335741 }, "geometry": { "type": "MultiPolygon", "coordinates": [ [ [ [ -156.0125046, 20.686586299999941 ], [ -156.0183935, 20.685596499999971 ], [ -156.023164, 20.6816967 ], [ -156.024986499999983, 20.682551 ], [ -156.0217385, 20.686244699999989 ], [ -156.023147199999983, 20.6873405 ], [ -156.0221914, 20.6888841 ], [ -156.020297699999986, 20.687688800000036 ], [ -156.018356099999977, 20.6887851 ], [ -156.0135372, 20.688163200000027 ], [ -156.0125046, 20.686586299999941 ] ] ], [ [ [ -156.001888899999983, 20.6929021 ], [ -156.008257599999951, 20.6872211 ], [ -156.0120383, 20.686608300000021 ], [ -156.011867199999983, 20.688178400000023 ], [ -156.0020868, 20.6970428 ], [ -156.0003417, 20.702544 ], [ -155.995988799999964, 20.707986 ], [ -155.996304, 20.7129599 ], [ -155.9942174, 20.7138156 ], [ -155.994061, 20.7154658 ], [ -155.995581, 20.7185089 ], [ -155.9947871, 20.721316900000023 ], [ -155.9931153, 20.72184550000005 ], [ -155.9915043, 20.7129272 ], [ -156.001888899999983, 20.6929021 ] ] ], [ [ [ -155.983475299999981, 20.72257 ], [ -155.985928903822838, 20.718604788439489 ], [ -155.9914019, 20.7187647 ], [ -155.990902799999986, 20.720488499999977 ], [ -155.986917199999965, 20.7214843 ], [ -155.985045499999984, 20.726775800000013 ], [ -155.983214227979232, 20.726131241527902 ], [ -155.983475299999981, 20.72257 ] ] ], [ [ [ -155.986538199999956, 20.7334983 ], [ -155.988236299999983, 20.7324405 ], [ -155.98937650000002, 20.733950599999989 ], [ -155.987662599999965, 20.735095800000011 ], [ -155.986538199999956, 20.7334983 ] ] ], [ [ [ -156.123945, 20.634594899999986 ], [ -156.1256411, 20.63353569999996 ], [ -156.1267819, 20.635044900000015 ], [ -156.125070100000016, 20.636191600000032 ], [ -156.123945, 20.634594899999986 ] ] ], [ [ [ -155.984076099999982, 20.736728500000016 ], [ -155.9856814, 20.735655899999973 ], [ -155.986914399999989, 20.737180899999988 ], [ -155.985200499999962, 20.738326100000027 ], [ -155.984076099999982, 20.736728500000016 ] ] ], [ [ [ -155.984073600000016, 20.740203 ], [ -155.9866312, 20.7396527 ], [ -155.986615, 20.74318220000001 ], [ -155.984523699999983, 20.74298 ], [ -155.984073600000016, 20.740203 ] ] ], [ [ [ -155.982352, 20.755588499999966 ], [ -155.9830365, 20.7524303 ], [ -155.985650600000014, 20.750743400000012 ], [ -155.984758199999987, 20.7457719 ], [ -155.9866432, 20.74504610000001 ], [ -155.9892002, 20.755782600000014 ], [ -155.987601499999982, 20.7573654 ], [ -155.9895421, 20.7586894 ], [ -155.9916121, 20.757034900000029 ], [ -155.9916804, 20.760231 ], [ -155.996182399999981, 20.7643057 ], [ -155.9997544, 20.7644395 ], [ -155.9996325, 20.766085 ], [ -155.997265299999953, 20.767177899999989 ], [ -156.0036591, 20.777333700000039 ], [ -156.003410100000025, 20.779134500000023 ], [ -156.0015904, 20.779296 ], [ -155.9993643, 20.776623500000035 ], [ -155.9961966, 20.769664099999982 ], [ -155.9904013, 20.7620012 ], [ -155.989001799999983, 20.761570499999976 ], [ -155.9860907, 20.767050399999974 ], [ -155.9840585, 20.7669171 ], [ -155.9834826, 20.763996899999988 ], [ -155.986401, 20.759852 ], [ -155.983856, 20.755781 ], [ -155.982352, 20.755588499999966 ] ] ], [ [ [ -156.0031334, 20.7800673 ], [ -156.0051819, 20.779095599999987 ], [ -156.010247, 20.781450699999969 ], [ -156.0107276, 20.782962800000018 ], [ -156.002301099999983, 20.787592300000011 ], [ -156.001734699999986, 20.78543 ], [ -156.0058728, 20.783001900000023 ], [ -156.0031334, 20.7800673 ] ] ] ] } },
{ "type": "Feature", "properties": { "state_po": "HI", "congressional_district": "HI-02", "pwsid": "HI0000218", "pws_name": "HONOKOHAU", "population_served_count": 42, "model_method": "", "verification_status": "", "symbology_field": "System Sourced", "intersection_area_sq_km": 0.39052983171948963 }, "geometry": { "type": "MultiPolygon", "coordinates": [ [ [ [ -156.6036105, 21.0033713 ], [ -156.605145099999987, 21.002108500000034 ], [ -156.6064898, 21.003549600000021 ], [ -156.6049552, 21.004812400000027 ], [ -156.6036105, 21.0033713 ] ] ], [ [ [ -156.6064563, 21.010358700000019 ], [ -156.603786099999979, 21.0063903 ], [ -156.605320799999987, 21.00512759999998 ], [ -156.607991, 21.009095900000027 ], [ -156.6064563, 21.010358700000019 ] ] ], [ [ [ -156.605854400000027, 21.013948399999961 ], [ -156.60837, 21.013232900000013 ], [ -156.6095085, 21.0176603 ], [ -156.607403299999959, 21.017594900000034 ], [ -156.605854400000027, 21.013948399999961 ] ] ] ] } },
{ "type": "Feature", "properties": { "state_po": "HI", "congressional_district": "HI-02", "pwsid": "HI0000235", "pws_name": "KALAE", "population_served_count": 360, "model_method": "", "verification_status": "", "symbology_field": "System Sourced", "intersection_area_sq_km": 0.6073332798991925 }, "geometry": { "type": "Polygon", "coordinates": [ [ [ -156.9959461, 21.1636154 ], [ -156.9974867, 21.161947600000012 ], [ -157.000560599999972, 21.1622147 ], [ -157.009302899999966, 21.1580518 ], [ -157.011165799999986, 21.1589813 ], [ -157.006073599999979, 21.164928599999982 ], [ -157.000662199999965, 21.163818 ], [ -156.997204899999986, 21.164956200000013 ], [ -156.9959461, 21.1636154 ] ] ] } },
{ "type": "Feature", "properties": { "state_po": "HI", "congressional_district": "HI-02", "pwsid": "HI0000219", "pws_name": "KEANAE", "population_served_count": 270, "model_method": "", "verification_status": "", "symbology_field": "System Sourced", "intersection_area_sq_km": 1.4072732851599523 }, "geometry": { "type": "Polygon", "coordinates": [ [ [ -156.146922, 20.865185 ], [ -156.144256613015273, 20.864911949539305 ], [ -156.144687600000026, 20.858535699999972 ], [ -156.1407166, 20.8541601 ], [ -156.1409228, 20.852553799999988 ], [ -156.140532399999955, 20.8519632 ], [ -156.1391267, 20.8536336 ], [ -156.1363332, 20.852076600000014 ], [ -156.1347506, 20.848043200000017 ], [ -156.1277345, 20.841307200000021 ], [ -156.1281883, 20.839504700000035 ], [ -156.135753, 20.840781700000012 ], [ -156.135672699999986, 20.84287490000002 ], [ -156.1328963, 20.84272380000003 ], [ -156.1358816, 20.8470126 ], [ -156.1405093, 20.8518835 ], [ -156.1415422, 20.84986629999996 ], [ -156.143297, 20.849871599999972 ], [ -156.1429545, 20.852500500000026 ], [ -156.14547, 20.855958299999987 ], [ -156.149689, 20.8577413 ], [ -156.14812569999998, 20.860161 ], [ -156.1462649, 20.858545299999975 ], [ -156.1450792, 20.858642599999978 ], [ -156.1457672, 20.8624816 ], [ -156.147545699999966, 20.8602744 ], [ -156.149352899999968, 20.86149990000003 ], [ -156.146922, 20.865185 ] ] ] } },
{ "type": "Feature", "properties": { "state_po": "HI", "congressional_district": "HI-02", "pwsid": "HI0000229", "pws_name": "KUALAPUU", "population_served_count": 500, "model_method": "", "verification_status": "", "symbology_field": "System Sourced", "intersection_area_sq_km": 0.26924855965329808 }, "geometry": { "type": "Polygon", "coordinates": [ [ [ -157.0038898, 21.161515300000012 ], [ -157.005142500000034, 21.1601696 ], [ -157.0081312, 21.1609993 ], [ -157.0066041, 21.165300499999979 ], [ -157.002820899999989, 21.165398599999989 ], [ -157.0025239, 21.163391300000029 ], [ -157.004680200000024, 21.162719899999978 ], [ -157.0038898, 21.161515300000012 ] ] ] } },
{ "type": "Feature", "properties": { "state_po": "HI", "congressional_district": "HI-02", "pwsid": "HI0000220", "pws_name": "NAHIKU", "population_served_count": 107, "model_method": "", "verification_status": "", "symbology_field": "System Sourced", "intersection_area_sq_km": 0.76468029054309339 }, "geometry": { "type": "MultiPolygon", "coordinates": [ [ [ [ -156.086991499999982, 20.813206100000027 ], [ -156.0896454, 20.811450099999956 ], [ -156.093256199999985, 20.812197400000013 ], [ -156.092906199999987, 20.814147499999983 ], [ -156.089963499999982, 20.814133299999973 ], [ -156.0927965, 20.818008 ], [ -156.0924095, 20.8195438 ], [ -156.0862516, 20.8202235 ], [ -156.08645180000002, 20.818380799999979 ], [ -156.089184599999982, 20.817691500000052 ], [ -156.086991499999982, 20.813206100000027 ] ] ], [ [ [ -156.092684899999966, 20.826586600000013 ], [ -156.0872382, 20.823087199999989 ], [ -156.087180800000027, 20.8212357 ], [ -156.089383, 20.820957 ], [ -156.093712599999975, 20.8242772 ], [ -156.092684899999966, 20.826586600000013 ] ] ] ] } },
{ "type": "Feature", "properties": { "state_po": "HI", "congressional_district": "HI-02", "pwsid": "HI0000233", "pws_name": "UALAPUE", "population_served_count": 1119, "model_method": "", "verification_status": "", "symbology_field": "System Sourced", "intersection_area_sq_km": 4.6776001255388273 }, "geometry": { "type": "MultiPolygon", "coordinates": [ [ [ [ -156.754204499999986, 21.0999462 ], [ -156.7539472, 21.1023967 ], [ -156.751565299999982, 21.10266750000001 ], [ -156.751157001994272, 21.101901835775447 ], [ -156.754204499999986, 21.0999462 ] ] ], [ [ [ -156.7496104, 21.103499700000011 ], [ -156.749818, 21.1054678 ], [ -156.7472822, 21.105963 ], [ -156.7468824346563, 21.105245833293797 ], [ -156.7496104, 21.103499700000011 ] ] ], [ [ [ -156.7874424, 21.0790288 ], [ -156.7872406, 21.081682 ], [ -156.781048299999981, 21.086467899999978 ], [ -156.777426099999985, 21.0864021 ], [ -156.775621699999988, 21.08888760000001 ], [ -156.7693425, 21.090935300000034 ], [ -156.7570361, 21.099963700000014 ], [ -156.7549889, 21.09939750000002 ], [ -156.771226464949848, 21.087635223053038 ], [ -156.7775608, 21.083960500000028 ], [ -156.780295, 21.083988600000012 ], [ -156.7874424, 21.0790288 ] ] ], [ [ [ -156.792284699999982, 21.073217900000024 ], [ -156.802692899999983, 21.0696462 ], [ -156.804043, 21.06793620000002 ], [ -156.813990499999989, 21.0673543 ], [ -156.8204805, 21.065177 ], [ -156.8387804, 21.054918899999961 ], [ -156.844418, 21.0555973 ], [ -156.843530499999986, 21.0574254 ], [ -156.845064, 21.058260099999988 ], [ -156.8447787, 21.05983419999998 ], [ -156.841367, 21.0595689 ], [ -156.8404531, 21.057530300000032 ], [ -156.837386400000014, 21.058247200000043 ], [ -156.835009899999989, 21.061867399999979 ], [ -156.831246599999986, 21.063243400000015 ], [ -156.831230599999969, 21.067812600000039 ], [ -156.8294775, 21.0673153 ], [ -156.829837699999985, 21.06546 ], [ -156.828207099999986, 21.063709300000014 ], [ -156.8207658, 21.06780360000003 ], [ -156.814166, 21.068263700000013 ], [ -156.794700699999964, 21.07500569999997 ], [ -156.792304099999967, 21.077885799999983 ], [ -156.787597, 21.079133700000021 ], [ -156.792284699999982, 21.073217900000024 ] ] ], [ [ [ -156.84529, 21.058465300000019 ], [ -156.847056499999979, 21.057505400000021 ], [ -156.848100499999987, 21.059077299999966 ], [ -156.8464046, 21.060143600000011 ], [ -156.84529, 21.058465300000019 ] ] ], [ [ [ -156.8571274, 21.0560389 ], [ -156.856782499999952, 21.0585213 ], [ -156.849746499999952, 21.0594222 ], [ -156.8483511, 21.0584196 ], [ -156.849369700000011, 21.0567591 ], [ -156.8571274, 21.0560389 ] ] ], [ [ [ -156.858116699999982, 21.056183 ], [ -156.859881799999954, 21.055038300000046 ], [ -156.8611263, 21.056557 ], [ -156.859346, 21.0577892 ], [ -156.858116699999982, 21.056183 ] ] ], [ [ [ -156.86340629999998, 21.055766799999983 ], [ -156.8651021, 21.054700399999987 ], [ -156.866253399999977, 21.056204699999981 ], [ -156.864635599999986, 21.057373 ], [ -156.86340629999998, 21.055766799999983 ] ] ], [ [ [ -156.873813399999989, 21.047720100000049 ], [ -156.8760868, 21.0484908 ], [ -156.877402399999966, 21.0461785 ], [ -156.879839899999979, 21.047835300000042 ], [ -156.878234599999985, 21.050547200000029 ], [ -156.875349699999987, 21.05161540000001 ], [ -156.8749142, 21.053683300000017 ], [ -156.8666193, 21.055628 ], [ -156.866920199999981, 21.053374200000039 ], [ -156.869592499999953, 21.052514399999971 ], [ -156.8693367, 21.050134100000019 ], [ -156.87205179999998, 21.049449300000028 ], [ -156.8730999, 21.051308299999974 ], [ -156.8739056, 21.051088599999986 ], [ -156.8726536, 21.0490503 ], [ -156.873813399999989, 21.047720100000049 ] ] ], [ [ [ -156.8870368, 21.051815199999979 ], [ -156.888803, 21.0508549 ], [ -156.889847399999979, 21.0524265 ], [ -156.888059799999979, 21.05347320000002 ], [ -156.8870368, 21.051815199999979 ] ] ] ] } }
]
}
