{
"type": "FeatureCollection",
"name": "ri_service_areas",
"crs": { "type": "name", "properties": { "name": "urn:ogc:def:crs:OGC:1.3:CRS84" } },
"features": [
{ "type": "Feature", "properties": { "state_po": "RI", "congressional_district": "RI-02", "pwsid": "RI1647512", "pws_name": "CENTRAL BEACH FIRE DISTRICT", "population_served_count": 470, "model_method": "Random Forest", "verification_status": "", "symbology_field": "Modeled", "intersection_area_sq_km": 0.29374691582396162 }, "geometry": { "type": "Polygon", "coordinates": [ [ [ -71.7134957, 41.336376499999972 ], [ -71.7121427, 41.33733049999995 ], [ -71.7126957, 41.34267250000002 ], [ -71.7103447, 41.3438975 ], [ -71.7092677, 41.341072500000017 ], [ -71.7063757, 41.341236500000051 ], [ -71.7051857, 41.3379635 ], [ -71.7112667, 41.337819499999988 ], [ -71.7107327, 41.3362475 ], [ -71.7134957, 41.336376499999972 ] ] ] } },
{ "type": "Feature", "properties": { "state_po": "RI", "congressional_district": "RI-02", "pwsid": "RI1900051", "pws_name": "WARWICK-POTOWOMUT", "population_served_count": 2163, "model_method": "Random Forest", "verification_status": "", "symbology_field": "Modeled", "intersection_area_sq_km": 0.038988709202969055 }, "geometry": { "type": "MultiPolygon", "coordinates": [ [ [ [ -71.4617927, 41.6481835 ], [ -71.4601827, 41.6502805 ], [ -71.4595457, 41.649761500000032 ], [ -71.4617927, 41.6481835 ] ] ], [ [ [ -71.4601597, 41.653955499999981 ], [ -71.4577187, 41.654480500000034 ], [ -71.4586497, 41.6533075 ], [ -71.4601597, 41.653955499999981 ] ] ] ] } },
{ "type": "Feature", "properties": { "state_po": "RI", "congressional_district": "RI-02", "pwsid": "RI2000053", "pws_name": "SUNSET COVE PROPERTIES LLC", "population_served_count": 30, "model_method": "Parcel", "verification_status": "", "symbology_field": "Modeled", "intersection_area_sq_km": 1.9257723175851844 }, "geometry": { "type": "Polygon", "coordinates": [ [ [ -71.7671978, 41.9162916 ], [ -71.7749718, 41.919941600000016 ], [ -71.7796868, 41.919804599999956 ], [ -71.7825218, 41.923978600000019 ], [ -71.768478800000011, 41.9270386 ], [ -71.7651878, 41.9293386 ], [ -71.7583988, 41.929477599999927 ], [ -71.760056800000015, 41.9272626 ], [ -71.7547308, 41.9217046 ], [ -71.7550438, 41.9197476 ], [ -71.7671978, 41.9162916 ] ] ] } },
{ "type": "Feature", "properties": { "state_po": "RI", "congressional_district": "RI-02", "pwsid": "RI2000059", "pws_name": "HARMONY HILL SCHOOL, INC.", "population_served_count": 199, "model_method": "Random Forest", "verification_status": "", "symbology_field": "Modeled", "intersection_area_sq_km": 5.7534939031596828 }, "geometry": { "type": "Polygon", "coordinates": [ [ [ -71.608193700000015, 41.8933936 ], [ -71.6161427, 41.896214600000022 ], [ -71.6240197, 41.894770600000022 ], [ -71.6219807, 41.898293600000024 ], [ -71.628302799999986, 41.904659599999917 ], [ -71.6304088, 41.9124976 ], [ -71.629140800000016, 41.916187600000015 ], [ -71.6245808, 41.9173916 ], [ -71.6243098, 41.921701600000027 ], [ -71.6282728, 41.924313599999955 ], [ -71.6253288, 41.9254346 ], [ -71.6232137, 41.922225599999962 ], [ -71.617024700000016, 41.925953600000057 ], [ -71.61401570000001, 41.925270600000076 ], [ -71.5941847, 41.9020016 ], [ -71.6016247, 41.8970656 ], [ -71.6126487, 41.906366599999984 ], [ -71.6144817, 41.906439599999956 ], [ -71.6150527, 41.902208599999973 ], [ -71.608193700000015, 41.8933936 ] ] ] } },
{ "type": "Feature", "properties": { "state_po": "RI", "congressional_district": "RI-02", "pwsid": "RI2674925", "pws_name": "CHARLESTOWN CEDARS LLC", "population_served_count": 150, "model_method": "Parcel", "verification_status": "", "symbology_field": "Modeled", "intersection_area_sq_km": 0.05595829870039111 }, "geometry": { "type": "Polygon", "coordinates": [ [ [ -71.6667657, 41.422634499999987 ], [ -71.6640717, 41.4231975 ], [ -71.6627047, 41.421395499999988 ], [ -71.6661907, 41.4212815 ], [ -71.6667657, 41.422634499999987 ] ] ] } },
{ "type": "Feature", "properties": { "state_po": "RI", "congressional_district": "RI-02", "pwsid": "RI2973130", "pws_name": "MAPLEHILL MOBILE HOME PARK", "population_served_count": 750, "model_method": "Random Forest", "verification_status": "", "symbology_field": "Modeled", "intersection_area_sq_km": 0.18669965152430512 }, "geometry": { "type": "Polygon", "coordinates": [ [ [ -71.6378028, 41.944500599999948 ], [ -71.6393258, 41.947810599999954 ], [ -71.638489800000016, 41.9500556 ], [ -71.6358888, 41.9501816 ], [ -71.6339328, 41.946409599999988 ], [ -71.6378028, 41.944500599999948 ] ] ] } },
{ "type": "Feature", "properties": { "state_po": "RI", "congressional_district": "RI-02", "pwsid": "RI2980017", "pws_name": "CHURCH WOODS", "population_served_count": 98, "model_method": "Random Forest", "verification_status": "", "symbology_field": "Modeled", "intersection_area_sq_km": 0.75914567733325811 }, "geometry": { "type": "MultiPolygon", "coordinates": [ [ [ [ -71.634917700000017, 41.3682905 ], [ -71.6378617, 41.372192499999983 ], [ -71.6364447, 41.3767935 ], [ -71.6325557, 41.376077499999973 ], [ -71.634917700000017, 41.3682905 ] ] ], [ [ [ -71.6286627, 41.379383499999982 ], [ -71.6288997, 41.382828499999974 ], [ -71.6320037, 41.383253500000016 ], [ -71.6311657, 41.384598500000038 ], [ -71.6330577, 41.385262500000032 ], [ -71.63741370000001, 41.384018500000046 ], [ -71.6389627, 41.3841145 ], [ -71.6405057, 41.3844485 ], [ -71.6404567, 41.384568499999972 ], [ -71.6345377, 41.385106500000049 ], [ -71.6319737, 41.387974500000055 ], [ -71.6303947, 41.388031500000032 ], [ -71.6307587, 41.386974500000015 ], [ -71.6139257, 41.393781499999982 ], [ -71.6256647, 41.388911499999985 ], [ -71.625908700000011, 41.387165499999988 ], [ -71.6232127, 41.3879725 ], [ -71.6252167, 41.381805499999984 ], [ -71.6273357, 41.382397499999989 ], [ -71.6286627, 41.379383499999982 ] ] ] ] } },
{ "type": "Feature", "properties": { "state_po": "RI", "congressional_district": "RI-02", "pwsid": "RI2980452", "pws_name": "CNE - HOPKINS HILL ROAD ENTRY POINT", "population_served_count": 317, "model_method": "Random Forest", "verification_status": "", "symbology_field": "Modeled", "intersection_area_sq_km": 0.73480297408115003 }, "geometry": { "type": "Polygon", "coordinates": [ [ [ -71.4513707, 41.75223249999997 ], [ -71.4602977, 41.758572499999943 ], [ -71.4587787, 41.7653815 ], [ -71.4555617, 41.7631205 ], [ -71.4556817, 41.761280500000012 ], [ -71.447670700000018, 41.7578705 ], [ -71.4485597, 41.756724499999947 ], [ -71.4469087, 41.7560235 ], [ -71.4513707, 41.75223249999997 ] ] ] } },
{ "type": "Feature", "properties": { "state_po": "RI", "congressional_district": "RI-02", "pwsid": "RI2980475", "pws_name": "EXETER JOB CORPS CENTER", "population_served_count": 300, "model_method": "Random Forest", "verification_status": "", "symbology_field": "Modeled", "intersection_area_sq_km": 0.081414485482491361 }, "geometry": { "type": "Polygon", "coordinates": [ [ [ -71.5442507, 41.554348500000039 ], [ -71.5441917, 41.557012499999963 ], [ -71.541428700000012, 41.55693550000003 ], [ -71.5414737, 41.55378850000001 ], [ -71.5442507, 41.554348500000039 ] ] ] } },
{ "type": "Feature", "properties": { "state_po": "RI", "congressional_district": "RI-02", "pwsid": "RI2980476", "pws_name": "DOWLING VILLAGE", "population_served_count": 2720, "model_method": "Random Forest", "verification_status": "", "symbology_field": "Modeled", "intersection_area_sq_km": 6.1019743984259405e-05 }, "geometry": { "type": "Polygon", "coordinates": [ [ [ -71.496079974991204, 41.868912477996368 ], [ -71.4968717, 41.8688006 ], [ -71.49746217140941, 41.868730261827253 ], [ -71.496079974991204, 41.868912477996368 ] ] ] } },
{ "type": "Feature", "properties": { "state_po": "RI", "congressional_district": "RI-02", "pwsid": "RI2980487", "pws_name": "SOUTH TRAIL COMMERCE", "population_served_count": 175, "model_method": "Random Forest", "verification_status": "", "symbology_field": "Modeled", "intersection_area_sq_km": 0.16000993115510675 }, "geometry": { "type": "Polygon", "coordinates": [ [ [ -71.5195324, 41.556013199999938 ], [ -71.529845, 41.549517 ], [ -71.5317062, 41.548855599999953 ], [ -71.5301907, 41.551159799999986 ], [ -71.5241584, 41.553796799999986 ], [ -71.522734700000015, 41.556982700000013 ], [ -71.5191596, 41.5579128 ], [ -71.5195324, 41.556013199999938 ] ] ] } },
{ "type": "Feature", "properties": { "state_po": "RI", "congressional_district": "RI-02", "pwsid": "RI2519424", "pws_name": "CHIMERA INC", "population_served_count": 133, "model_method": "Parcel", "verification_status": "", "symbology_field": "Modeled", "intersection_area_sq_km": 0.056095534076723533 }, "geometry": { "type": "Polygon", "coordinates": [ [ [ -71.6617804, 41.900637400000043 ], [ -71.658035, 41.9016942 ], [ -71.6570503, 41.899767299999965 ], [ -71.6613983, 41.899675499999987 ], [ -71.6617804, 41.900637400000043 ] ] ] } },
{ "type": "Feature", "properties": { "state_po": "RI", "congressional_district": "RI-02", "pwsid": "RI1000015", "pws_name": "SOUTH KINGSTOWN-MIDDLEBRIDGE", "population_served_count": 694, "model_method": "", "verification_status": "", "symbology_field": "System Sourced", "intersection_area_sq_km": 0.78886869596079212 }, "geometry": { "type": "Polygon", "coordinates": [ [ [ -71.4523165, 41.457390399999987 ], [ -71.4572526, 41.459574799999977 ], [ -71.4503296, 41.480329799999971 ], [ -71.4484054, 41.479886799999989 ], [ -71.450425200000012, 41.472606800000023 ], [ -71.4489857, 41.468728700000014 ], [ -71.453147, 41.4621282 ], [ -71.4523165, 41.457390399999987 ] ] ] } },
{ "type": "Feature", "properties": { "state_po": "RI", "congressional_district": "RI-02", "pwsid": "RI1000009", "pws_name": "ABBEY LANE COMMUNITY ASSN., INC.", "population_served_count": 45, "model_method": "Random Forest", "verification_status": "", "symbology_field": "Modeled", "intersection_area_sq_km": 0.10449629434772761 }, "geometry": { "type": "MultiPolygon", "coordinates": [ [ [ [ -71.7585148, 41.853844600000023 ], [ -71.758215800000016, 41.855101600000012 ], [ -71.7474838, 41.855244599999942 ], [ -71.7585148, 41.853844600000023 ] ] ], [ [ [ -71.7201558, 41.855957599999989 ], [ -71.7207068, 41.8542946 ], [ -71.7262098, 41.8560076 ], [ -71.7243508, 41.855900600000027 ], [ -71.7201558, 41.855957599999989 ] ] ] ] } },
{ "type": "Feature", "properties": { "state_po": "RI", "congressional_district": "RI-02", "pwsid": "RI1000035", "pws_name": "CASTLE ROCK CONDOMINIUMS", "population_served_count": 292, "model_method": "Random Forest", "verification_status": "", "symbology_field": "Modeled", "intersection_area_sq_km": 0.4551880932807495 }, "geometry": { "type": "MultiPolygon", "coordinates": [ [ [ [ -71.625908700000011, 41.387165499999988 ], [ -71.6252167, 41.38917150000001 ], [ -71.6140317, 41.39350349999998 ], [ -71.6160897, 41.387890499999962 ], [ -71.6160287, 41.390812500000024 ], [ -71.625908700000011, 41.387165499999988 ] ] ], [ [ [ -71.6214207, 41.395022499999982 ], [ -71.6136237, 41.395140499999954 ], [ -71.6134417, 41.3951475 ], [ -71.6139257, 41.393781499999982 ], [ -71.6220867, 41.3905875 ], [ -71.6214207, 41.395022499999982 ] ] ] ] } },
{ "type": "Feature", "properties": { "state_po": "RI", "congressional_district": "RI-02", "pwsid": "RI1000045", "pws_name": "BETHEL VILLAGE WATER ASSN", "population_served_count": 180, "model_method": "Random Forest", "verification_status": "", "symbology_field": "Modeled", "intersection_area_sq_km": 0.3394413063286863 }, "geometry": { "type": "MultiPolygon", "coordinates": [ [ [ [ -71.789459800000017, 41.422383500000024 ], [ -71.7920998, 41.4228065 ], [ -71.7901238, 41.425007499999971 ], [ -71.7879798, 41.424057499999975 ], [ -71.7837758, 41.426949499999985 ], [ -71.7848828, 41.424462499999926 ], [ -71.789459800000017, 41.422383500000024 ] ] ], [ [ [ -71.79632380000001, 41.43656850000005 ], [ -71.7945108, 41.4341135 ], [ -71.790756800000011, 41.430008499999971 ], [ -71.797069724594039, 41.42998191855186 ], [ -71.79632380000001, 41.43656850000005 ] ] ] ] } },
{ "type": "Feature", "properties": { "state_po": "RI", "congressional_district": "RI-02", "pwsid": "RI1000098", "pws_name": "LINDHBROOK WATER COMPANY", "population_served_count": 200, "model_method": "Random Forest", "verification_status": "", "symbology_field": "Modeled", "intersection_area_sq_km": 0.15122816284729107 }, "geometry": { "type": "MultiPolygon", "coordinates": [ [ [ [ -71.718979800000014, 41.4401405 ], [ -71.7174158, 41.442421500000016 ], [ -71.7161798, 41.442082500000033 ], [ -71.7163938, 41.44007150000003 ], [ -71.718979800000014, 41.4401405 ] ] ], [ [ [ -71.7248998, 41.4752745 ], [ -71.7289058, 41.479126499999971 ], [ -71.7249688, 41.477993500000068 ], [ -71.7248998, 41.4752745 ] ] ], [ [ [ -71.7331498, 41.481763500000071 ], [ -71.7327058, 41.4794835 ], [ -71.7349078, 41.479123499999986 ], [ -71.7350548, 41.4802945 ], [ -71.7329418, 41.480512499999946 ], [ -71.7331498, 41.481763500000071 ] ] ] ] } },
{ "type": "Feature", "properties": { "state_po": "RI", "congressional_district": "RI-02", "pwsid": "RI1559513", "pws_name": "SHADY HARBOR FIRE DISTRICT", "population_served_count": 300, "model_method": "Random Forest", "verification_status": "", "symbology_field": "Modeled", "intersection_area_sq_km": 1.0932945946368118 }, "geometry": { "type": "MultiPolygon", "coordinates": [ [ [ [ -71.7365808, 41.3503845 ], [ -71.7336438, 41.3482675 ], [ -71.7325908, 41.3387075 ], [ -71.7357418, 41.3376625 ], [ -71.7364438, 41.338978500000017 ], [ -71.7386928, 41.338607499999945 ], [ -71.7379468, 41.344940499999979 ], [ -71.744031800000016, 41.3473705 ], [ -71.7471478, 41.34592149999996 ], [ -71.7545708, 41.350491500000039 ], [ -71.743614800000017, 41.347798500000032 ], [ -71.7365808, 41.3503845 ] ] ], [ [ [ -71.7301068, 41.3516665 ], [ -71.7291418, 41.347451499999984 ], [ -71.7311928, 41.3433895 ], [ -71.7320638, 41.351273500000033 ], [ -71.7301068, 41.3516665 ] ] ], [ [ [ -71.7374888, 41.3502845 ], [ -71.7393098, 41.354200499999955 ], [ -71.736309800000015, 41.3548975 ], [ -71.734580800000018, 41.35087650000002 ], [ -71.7374888, 41.3502845 ] ] ], [ [ [ -71.730107800000013, 41.353262500000021 ], [ -71.7315758, 41.351685500000016 ], [ -71.7335578, 41.353327499999928 ], [ -71.730107800000013, 41.353262500000021 ] ] ] ] } },
{ "type": "Feature", "properties": { "state_po": "RI", "congressional_district": "RI-02", "pwsid": "RI1583825", "pws_name": "GLENDALE WATER ASSN", "population_served_count": 75, "model_method": "Random Forest", "verification_status": "", "symbology_field": "Modeled", "intersection_area_sq_km": 0.085995390048192663 }, "geometry": { "type": "MultiPolygon", "coordinates": [ [ [ [ -71.6298908, 41.972325600000033 ], [ -71.6314708, 41.973763599999984 ], [ -71.626671800000011, 41.9743966 ], [ -71.6262448, 41.9735156 ], [ -71.6298908, 41.972325600000033 ] ] ], [ [ [ -71.635220800000013, 41.9768476 ], [ -71.6322108, 41.976422600000056 ], [ -71.6321398, 41.974874600000014 ], [ -71.635220800000013, 41.9768476 ] ] ] ] } },
{ "type": "Feature", "properties": { "state_po": "RI", "congressional_district": "RI-02", "pwsid": "RI1592012", "pws_name": "LADD CENTER WATER SYSTEM", "population_served_count": 129, "model_method": "Random Forest", "verification_status": "", "symbology_field": "Modeled", "intersection_area_sq_km": 0.0063034934107953789 }, "geometry": { "type": "Polygon", "coordinates": [ [ [ -71.387829, 41.7615782 ], [ -71.38908, 41.7622272 ], [ -71.387989, 41.762151199999984 ], [ -71.387829, 41.7615782 ] ] ] } },
{ "type": "Feature", "properties": { "state_po": "RI", "congressional_district": "RI-02", "pwsid": "RI1647511", "pws_name": "QUONOCHONTAUG EAST BEACH WATER ASSOCIATI", "population_served_count": 300, "model_method": "Random Forest", "verification_status": "", "symbology_field": "Modeled", "intersection_area_sq_km": 0.7918602293497109 }, "geometry": { "type": "MultiPolygon", "coordinates": [ [ [ [ -71.716324700000015, 41.3314145 ], [ -71.7098547, 41.334751500000031 ], [ -71.7112667, 41.337819499999988 ], [ -71.700217881890083, 41.338114454060445 ], [ -71.70517, 41.334285 ], [ -71.716324700000015, 41.3314145 ] ] ], [ [ [ -71.6947567, 41.3421335 ], [ -71.6988377, 41.3447425 ], [ -71.7033087, 41.3567815 ], [ -71.7007987, 41.35730850000003 ], [ -71.699989700000017, 41.351521500000011 ], [ -71.6981857, 41.35077050000001 ], [ -71.6950017, 41.343517499999955 ], [ -71.691761700000015, 41.344190499999989 ], [ -71.690989563892302, 41.342197964386742 ], [ -71.6947567, 41.3421335 ] ] ], [ [ [ -71.7033337, 41.356866500000017 ], [ -71.6996777, 41.358593500000069 ], [ -71.6970587, 41.358432499999928 ], [ -71.7033337, 41.356866500000017 ] ] ] ] } },
{ "type": "Feature", "properties": { "state_po": "RI", "congressional_district": "RI-02", "pwsid": "RI1647516", "pws_name": "ELEANOR SLATER HOSPITAL ZAMBARANO UNIT", "population_served_count": 540, "model_method": "Random Forest", "verification_status": "", "symbology_field": "Modeled", "intersection_area_sq_km": 0.57614194210434344 }, "geometry": { "type": "Polygon", "coordinates": [ [ [ -71.740910200000016, 41.9987533 ], [ -71.7366452, 41.999153300000053 ], [ -71.7241944, 41.9944231 ], [ -71.7291684, 41.993500200000042 ], [ -71.7323044, 41.9898722 ], [ -71.734890400000012, 41.989597299999971 ], [ -71.740910200000016, 41.9987533 ] ] ] } },
{ "type": "Feature", "properties": { "state_po": "RI", "congressional_district": "RI-02", "pwsid": "RI1647529", "pws_name": "SHANNOCK WATER DISTRICT", "population_served_count": 75, "model_method": "Random Forest", "verification_status": "", "symbology_field": "Modeled", "intersection_area_sq_km": 0.33342194469692232 }, "geometry": { "type": "MultiPolygon", "coordinates": [ [ [ [ -71.6364627, 41.447675499999981 ], [ -71.6327747, 41.448985499999978 ], [ -71.6314517, 41.4465485 ], [ -71.6284407, 41.448015500000032 ], [ -71.6268707, 41.445233499999986 ], [ -71.631940700000015, 41.442096500000048 ], [ -71.6342567, 41.446713499999973 ], [ -71.6364627, 41.447675499999981 ] ] ], [ [ [ -71.6369387, 41.447639500000029 ], [ -71.6382297, 41.446649500000021 ], [ -71.6441087, 41.448515500000013 ], [ -71.6400917, 41.44742649999997 ], [ -71.6369387, 41.447639500000029 ] ] ] ] } },
{ "type": "Feature", "properties": { "state_po": "RI", "congressional_district": "RI-02", "pwsid": "RI1858435", "pws_name": "FOSTER SENIOR HOUSING INC.", "population_served_count": 31, "model_method": "Random Forest", "verification_status": "", "symbology_field": "Modeled", "intersection_area_sq_km": 0.10186741111152729 }, "geometry": { "type": "MultiPolygon", "coordinates": [ [ [ [ -71.7212228, 41.783516500000012 ], [ -71.7206958, 41.784790499999986 ], [ -71.720222800000016, 41.786003500000042 ], [ -71.7192518, 41.7828855 ], [ -71.7212228, 41.783516500000012 ] ] ], [ [ [ -71.730040800000012, 41.8004355 ], [ -71.7281998, 41.8024945 ], [ -71.7294738, 41.803074499999987 ], [ -71.7277858, 41.804218500000026 ], [ -71.7275098, 41.799969499999982 ], [ -71.730040800000012, 41.8004355 ] ] ] ] } },
{ "type": "Feature", "properties": { "state_po": "RI", "congressional_district": "RI-02", "pwsid": "RI1900020", "pws_name": "PAIGE ASSOCIATES", "population_served_count": 120, "model_method": "Random Forest", "verification_status": "", "symbology_field": "Modeled", "intersection_area_sq_km": 0.29103939226458098 }, "geometry": { "type": "Polygon", "coordinates": [ [ [ -71.6193627, 41.704432500000024 ], [ -71.6152047, 41.709044499999948 ], [ -71.6113217, 41.704192499999962 ], [ -71.6059117, 41.703410500000025 ], [ -71.6070717, 41.702348500000021 ], [ -71.6193627, 41.704432500000024 ] ] ] } },
{ "type": "Feature", "properties": { "state_po": "RI", "congressional_district": "RI-02", "pwsid": "RI1900034", "pws_name": "NASONVILLE WATER DISTRICT", "population_served_count": 150, "model_method": "Random Forest", "verification_status": "", "symbology_field": "Modeled", "intersection_area_sq_km": 0.20091558393627604 }, "geometry": { "type": "MultiPolygon", "coordinates": [ [ [ [ -71.604032699999976, 41.975024599999962 ], [ -71.6009247, 41.977778600000043 ], [ -71.5999347, 41.9759466 ], [ -71.604032699999976, 41.975024599999962 ] ] ], [ [ [ -71.6236748, 41.984507600000022 ], [ -71.6258098, 41.988728600000023 ], [ -71.6168448, 41.981728599999947 ], [ -71.6236748, 41.984507600000022 ] ] ] ] } },
{ "type": "Feature", "properties": { "state_po": "RI", "congressional_district": "RI-02", "pwsid": "RI1900053", "pws_name": "CANONCHET CLIFFS WATER ASSOCIATION INC.", "population_served_count": 154, "model_method": "Decision Tree", "verification_status": "", "symbology_field": "Modeled", "intersection_area_sq_km": 0.069603492242671663 }, "geometry": { "type": "Polygon", "coordinates": [ [ [ -71.7401438, 41.49002550000003 ], [ -71.7354838, 41.489518499999974 ], [ -71.7382138, 41.4876375 ], [ -71.7401438, 41.49002550000003 ] ] ] } },
{ "type": "Feature", "properties": { "state_po": "RI", "congressional_district": "RI-02", "pwsid": "RI2000165", "pws_name": "KINGSTON CENTER", "population_served_count": 77, "model_method": "Random Forest", "verification_status": "", "symbology_field": "Modeled", "intersection_area_sq_km": 0.11575593218451195 }, "geometry": { "type": "Polygon", "coordinates": [ [ [ -71.6155637, 41.547097600000029 ], [ -71.6195435, 41.553309600000041 ], [ -71.6169435, 41.554432599999956 ], [ -71.6155637, 41.547097600000029 ] ] ] } },
{ "type": "Feature", "properties": { "state_po": "RI", "congressional_district": "RI-02", "pwsid": "RI2585312", "pws_name": "SPLIT ROCK CORPORATION", "population_served_count": 138, "model_method": "Parcel", "verification_status": "", "symbology_field": "Modeled", "intersection_area_sq_km": 0.22380702406964703 }, "geometry": { "type": "Polygon", "coordinates": [ [ [ -71.5501017, 41.528498500000019 ], [ -71.5472997, 41.532681500000038 ], [ -71.5421407, 41.5304605 ], [ -71.5435667, 41.527525500000017 ], [ -71.5501017, 41.528498500000019 ] ] ] } },
{ "type": "Feature", "properties": { "state_po": "RI", "congressional_district": "RI-02", "pwsid": "RI2585313", "pws_name": "MOBILE VILLAGE, INC.", "population_served_count": 130, "model_method": "Random Forest", "verification_status": "", "symbology_field": "Modeled", "intersection_area_sq_km": 0.26207444843381572 }, "geometry": { "type": "Polygon", "coordinates": [ [ [ -71.6587577, 41.5987015 ], [ -71.6580477, 41.6009935 ], [ -71.6558357, 41.60613750000001 ], [ -71.6514117, 41.599214499999988 ], [ -71.6587577, 41.5987015 ] ] ] } },
{ "type": "Feature", "properties": { "state_po": "RI", "congressional_district": "RI-02", "pwsid": "RI2674924", "pws_name": "BORDER HILL MOBILE HOME PARK", "population_served_count": 75, "model_method": "Random Forest", "verification_status": "", "symbology_field": "Modeled", "intersection_area_sq_km": 0.24111522905186256 }, "geometry": { "type": "MultiPolygon", "coordinates": [ [ [ [ -71.6422997, 41.383045500000037 ], [ -71.6430937, 41.381353499999946 ], [ -71.6437717, 41.380672499999932 ], [ -71.6441387, 41.380545499999961 ], [ -71.6449907, 41.381284499999964 ], [ -71.6422997, 41.383045500000037 ] ] ], [ [ [ -71.6431507, 41.383496499999964 ], [ -71.6467447, 41.38426249999997 ], [ -71.6491937, 41.383114500000012 ], [ -71.648933700000015, 41.384728499999987 ], [ -71.6535237, 41.385608499999975 ], [ -71.6470727, 41.3858885 ], [ -71.6423427, 41.3847745 ], [ -71.6431507, 41.383496499999964 ] ] ], [ [ [ -71.6391587, 41.394120499999978 ], [ -71.641521699999984, 41.390958499999975 ], [ -71.6410337, 41.39546650000004 ], [ -71.6391587, 41.394120499999978 ] ] ] ] } },
{ "type": "Feature", "properties": { "state_po": "RI", "congressional_district": "RI-02", "pwsid": "RI2674928", "pws_name": "NINIGRET REALTY", "population_served_count": 109, "model_method": "Random Forest", "verification_status": "", "symbology_field": "Modeled", "intersection_area_sq_km": 0.22817307005595247 }, "geometry": { "type": "MultiPolygon", "coordinates": [ [ [ [ -71.6864617, 41.3657815 ], [ -71.684696700000018, 41.363928499999986 ], [ -71.6895027, 41.3635395 ], [ -71.6903527, 41.3646635 ], [ -71.6864617, 41.3657815 ] ] ], [ [ [ -71.6808407, 41.377396500000046 ], [ -71.6780097, 41.378369499999984 ], [ -71.6765447, 41.377045499999959 ], [ -71.6796117, 41.3761335 ], [ -71.6808407, 41.377396500000046 ] ] ], [ [ [ -71.6752247, 41.3758745 ], [ -71.6748357, 41.379864499999982 ], [ -71.6748127, 41.381287499999985 ], [ -71.6716467, 41.376896499999972 ], [ -71.6752247, 41.3758745 ] ] ] ] } },
{ "type": "Feature", "properties": { "state_po": "RI", "congressional_district": "RI-02", "pwsid": "RI2942525", "pws_name": "HILLSDALE HOUSING COOPERATIVE, INC.", "population_served_count": 170, "model_method": "Parcel", "verification_status": "", "symbology_field": "Modeled", "intersection_area_sq_km": 0.49871934868671558 }, "geometry": { "type": "Polygon", "coordinates": [ [ [ -71.624737700000011, 41.55430249999997 ], [ -71.6211407, 41.552018499999974 ], [ -71.6180197, 41.548817499999977 ], [ -71.6167617, 41.543873499999961 ], [ -71.6189987, 41.544727499999972 ], [ -71.6195827, 41.547699499999972 ], [ -71.6250797, 41.5467135 ], [ -71.6260747, 41.55049349999998 ], [ -71.6280037, 41.550135499999982 ], [ -71.6301777, 41.5529365 ], [ -71.624737700000011, 41.55430249999997 ] ] ] } },
{ "type": "Feature", "properties": { "state_po": "RI", "congressional_district": "RI-02", "pwsid": "RI2943224", "pws_name": "VILLAGE ON CHOPMIST HILL, THE", "population_served_count": 250, "model_method": "Parcel", "verification_status": "", "symbology_field": "Modeled", "intersection_area_sq_km": 0.13220374918422834 }, "geometry": { "type": "Polygon", "coordinates": [ [ [ -71.6685878, 41.897946599999962 ], [ -71.6641488, 41.901249599999979 ], [ -71.6635238, 41.8996726 ], [ -71.6615838, 41.899983600000056 ], [ -71.665993799999981, 41.8961536 ], [ -71.6685878, 41.897946599999962 ] ] ] } },
{ "type": "Feature", "properties": { "state_po": "RI", "congressional_district": "RI-02", "pwsid": "RI2980146", "pws_name": "LAUREL CREST GLOCESTER HOUSING AUTHORITY", "population_served_count": 43, "model_method": "Random Forest", "verification_status": "", "symbology_field": "Modeled", "intersection_area_sq_km": 0.20102690451751881 }, "geometry": { "type": "MultiPolygon", "coordinates": [ [ [ [ -71.6705478, 41.914273599999952 ], [ -71.6693658, 41.9151816 ], [ -71.6691518, 41.915051599999963 ], [ -71.6705478, 41.914273599999952 ] ] ], [ [ [ -71.6686108, 41.911148600000011 ], [ -71.6701738, 41.9139076 ], [ -71.6668948, 41.915133599999976 ], [ -71.6649098, 41.9184316 ], [ -71.6631518, 41.9179946 ], [ -71.6635408, 41.91428760000003 ], [ -71.6674808, 41.912873600000012 ], [ -71.6669548, 41.911538600000014 ], [ -71.6686108, 41.911148600000011 ] ] ] ] } },
{ "type": "Feature", "properties": { "state_po": "RI", "congressional_district": "RI-02", "pwsid": "RI2980323", "pws_name": "JEMP 1 LLC", "population_served_count": 28, "model_method": "Random Forest", "verification_status": "", "symbology_field": "Modeled", "intersection_area_sq_km": 0.38347148898320038 }, "geometry": { "type": "MultiPolygon", "coordinates": [ [ [ [ -71.5807083, 41.830955099999969 ], [ -71.5901682, 41.832563199999967 ], [ -71.5811782, 41.833433099999979 ], [ -71.5807083, 41.830955099999969 ] ] ], [ [ [ -71.5675063, 41.8335819 ], [ -71.5689482, 41.834867900000013 ], [ -71.5753702, 41.835619 ], [ -71.5727301, 41.838107 ], [ -71.5687711, 41.838258899999978 ], [ -71.5675063, 41.8335819 ] ] ] ] } },
{ "type": "Feature", "properties": { "state_po": "RI", "congressional_district": "RI-02", "pwsid": "RI2980414", "pws_name": "ECHO LAKE WATER DISTRICT", "population_served_count": 160, "model_method": "Random Forest", "verification_status": "", "symbology_field": "Modeled", "intersection_area_sq_km": 0.23194706280070879 }, "geometry": { "type": "Polygon", "coordinates": [ [ [ -71.7182758, 41.9262466 ], [ -71.7120528, 41.927349600000021 ], [ -71.710762800000012, 41.9195336 ], [ -71.7131278, 41.920411599999959 ], [ -71.7124188, 41.922970599999985 ], [ -71.7151798, 41.9224486 ], [ -71.7182758, 41.9262466 ] ] ] } },
{ "type": "Feature", "properties": { "state_po": "RI", "congressional_district": "RI-02", "pwsid": "RI2980423", "pws_name": "SAUGATUCKET SPRINGS", "population_served_count": 110, "model_method": "Random Forest", "verification_status": "", "symbology_field": "Modeled", "intersection_area_sq_km": 0.7208245083755872 }, "geometry": { "type": "MultiPolygon", "coordinates": [ [ [ [ -71.777977800000016, 41.4614605 ], [ -71.7781648, 41.454230500000023 ], [ -71.796485467275332, 41.442624066338844 ], [ -71.7878148, 41.4497775 ], [ -71.7853378, 41.455974499999947 ], [ -71.7822948, 41.456495499999988 ], [ -71.7831668, 41.461442499999947 ], [ -71.777977800000016, 41.4614605 ] ] ], [ [ [ -71.7779088, 41.461743499999962 ], [ -71.7772068, 41.462860500000033 ], [ -71.7759578, 41.463686500000037 ], [ -71.7755118, 41.4605455 ], [ -71.7779088, 41.461743499999962 ] ] ] ] } },
{ "type": "Feature", "properties": { "state_po": "RI", "congressional_district": "RI-02", "pwsid": "RI2980426", "pws_name": "SHADOW WOODS AT DEER BROOK", "population_served_count": 300, "model_method": "Random Forest", "verification_status": "", "symbology_field": "Modeled", "intersection_area_sq_km": 0.69609202203661957 }, "geometry": { "type": "Polygon", "coordinates": [ [ [ -71.5480217, 41.5339945 ], [ -71.5549327, 41.5353055 ], [ -71.5511877, 41.542942500000066 ], [ -71.5398657, 41.541027499999984 ], [ -71.5480217, 41.5339945 ] ] ] } },
{ "type": "Feature", "properties": { "state_po": "RI", "congressional_district": "RI-02", "pwsid": "RI2980447", "pws_name": "ROCKVILLE MILL HOPKINTON, LLC", "population_served_count": 28, "model_method": "Random Forest", "verification_status": "", "symbology_field": "Modeled", "intersection_area_sq_km": 0.43782707046608887 }, "geometry": { "type": "Polygon", "coordinates": [ [ [ -71.7696708, 41.511389499999972 ], [ -71.7678808, 41.517363499999988 ], [ -71.7643438, 41.517920499999974 ], [ -71.7642868, 41.519887500000024 ], [ -71.7623188, 41.5203895 ], [ -71.7649428, 41.521780500000027 ], [ -71.7722498, 41.518416500000058 ], [ -71.7739388, 41.5197415 ], [ -71.7649468, 41.523777499999959 ], [ -71.7609258, 41.52130949999998 ], [ -71.7613148, 41.519268499999981 ], [ -71.7639168, 41.5151035 ], [ -71.7696708, 41.511389499999972 ] ] ] } },
{ "type": "Feature", "properties": { "state_po": "RI", "congressional_district": "RI-02", "pwsid": "RI2980473", "pws_name": "HOPKINTON, TOWN OF", "population_served_count": 125, "model_method": "Random Forest", "verification_status": "", "symbology_field": "Modeled", "intersection_area_sq_km": 0.49596038793527081 }, "geometry": { "type": "MultiPolygon", "coordinates": [ [ [ [ -71.7652508, 41.475455499999967 ], [ -71.7611788, 41.472401500000011 ], [ -71.76478680000001, 41.470078499999978 ], [ -71.7651678, 41.471089500000048 ], [ -71.7652508, 41.475455499999967 ] ] ], [ [ [ -71.7163018, 41.495114500000021 ], [ -71.7170108, 41.503922499999973 ], [ -71.7192088, 41.5051545 ], [ -71.715962800000014, 41.5077925 ], [ -71.7149278, 41.498698500000046 ], [ -71.7163538, 41.498391500000032 ], [ -71.7163018, 41.495114500000021 ] ] ], [ [ [ -71.7150738, 41.5091635 ], [ -71.7160578, 41.5100415 ], [ -71.7139898, 41.511536499999977 ], [ -71.7123118, 41.5103765 ], [ -71.7150738, 41.5091635 ] ] ], [ [ [ -71.7115108, 41.510922499999985 ], [ -71.7048878, 41.518311500000067 ], [ -71.7016378, 41.5178045 ], [ -71.7115108, 41.510922499999985 ] ] ] ] } },
{ "type": "Feature", "properties": { "state_po": "RI", "congressional_district": "RI-02", "pwsid": "RI1000040", "pws_name": "RICHMOND, TOWN OF", "population_served_count": 2671, "model_method": "", "verification_status": "", "symbology_field": "System Sourced", "intersection_area_sq_km": 3.7663011029186984 }, "geometry": { "type": "Polygon", "coordinates": [ [ [ -71.679925, 41.506075 ], [ -71.6835734, 41.505989799999966 ], [ -71.6893261, 41.509115599999987 ], [ -71.701718199999988, 41.512359800000027 ], [ -71.7062541, 41.5114604 ], [ -71.7085031, 41.51305110000002 ], [ -71.7075465, 41.5161133 ], [ -71.690598, 41.52539170000005 ], [ -71.6913223, 41.532796 ], [ -71.6975318, 41.5331457 ], [ -71.699781300000012, 41.534736500000086 ], [ -71.6977462, 41.538301199999978 ], [ -71.6857487, 41.538046600000058 ], [ -71.6828799, 41.536348300000036 ], [ -71.6835612, 41.523336300000011 ], [ -71.6912611, 41.5175767 ], [ -71.6908403, 41.515042299999983 ], [ -71.6787443, 41.509853700000015 ], [ -71.679925, 41.506075 ] ] ] } },
{ "type": "Feature", "properties": { "state_po": "RI", "congressional_district": "RI-01", "pwsid": "RI1592023", "pws_name": "PRUDENCE ISLAND WATER DISTRICT", "population_served_count": 1500, "model_method": "Random Forest", "verification_status": "", "symbology_field": "Modeled", "intersection_area_sq_km": 1.4506154821154591 }, "geometry": { "type": "MultiPolygon", "coordinates": [ [ [ [ -71.3133466, 41.597414500000035 ], [ -71.3146586, 41.599365500000012 ], [ -71.3125916, 41.599001500000021 ], [ -71.3133466, 41.597414500000035 ] ] ], [ [ [ -71.304205600000017, 41.605062499999967 ], [ -71.3080326, 41.5973275 ], [ -71.3087616, 41.599452499999956 ], [ -71.3094256, 41.5965835 ], [ -71.3116536, 41.5970655 ], [ -71.3067476, 41.60364449999998 ], [ -71.3051376, 41.612408500000015 ], [ -71.3052446, 41.615396500000038 ], [ -71.3098906, 41.614411500000053 ], [ -71.3092986, 41.618838499999988 ], [ -71.313283599999977, 41.61904250000002 ], [ -71.312248600000018, 41.627030500000025 ], [ -71.317710600000012, 41.62743949999998 ], [ -71.3185656, 41.624805500000015 ], [ -71.3213576, 41.624772500000027 ], [ -71.3282686, 41.630524500000021 ], [ -71.3276116, 41.6314915 ], [ -71.3172076, 41.631261499999958 ], [ -71.3140406, 41.6277865 ], [ -71.307944600000013, 41.62546149999995 ], [ -71.3041966, 41.618827499999973 ], [ -71.304205600000017, 41.605062499999967 ] ] ] ] } },
{ "type": "Feature", "properties": { "state_po": "RI", "congressional_district": "RI-01", "pwsid": "RI1615626", "pws_name": "TOUISSET POINT WATER TRUST", "population_served_count": 225, "model_method": "Random Forest", "verification_status": "", "symbology_field": "Modeled", "intersection_area_sq_km": 0.17099532185616118 }, "geometry": { "type": "Polygon", "coordinates": [ [ [ -71.2326396, 41.7024625 ], [ -71.2405876, 41.698450500000021 ], [ -71.2428156, 41.698406500000019 ], [ -71.2435576, 41.698983499999933 ], [ -71.2421296, 41.698838499999987 ], [ -71.2409946, 41.701572499999955 ], [ -71.2326396, 41.7024625 ] ] ] } },
{ "type": "Feature", "properties": { "state_po": "RI", "congressional_district": "RI-01", "pwsid": "RI2753326", "pws_name": "MEADOWLARK, INC.", "population_served_count": 183, "model_method": "Random Forest", "verification_status": "", "symbology_field": "Modeled", "intersection_area_sq_km": 0.16763762306055702 }, "geometry": { "type": "Polygon", "coordinates": [ [ [ -71.279276599999989, 41.4991815 ], [ -71.272580600000012, 41.500946499999984 ], [ -71.2718076, 41.497892499999985 ], [ -71.2758406, 41.496966500000013 ], [ -71.279276599999989, 41.4991815 ] ] ] } },
{ "type": "Feature", "properties": { "state_po": "RI", "congressional_district": "RI-01", "pwsid": "RI2980476", "pws_name": "DOWLING VILLAGE", "population_served_count": 2720, "model_method": "Random Forest", "verification_status": "", "symbology_field": "Modeled", "intersection_area_sq_km": 1.1089608521252006 }, "geometry": { "type": "Polygon", "coordinates": [ [ [ -71.4840537, 41.8704716 ], [ -71.5080427, 41.8673506 ], [ -71.5016027, 41.878326600000044 ], [ -71.497174700000016, 41.87361260000003 ], [ -71.4946907, 41.8727886 ], [ -71.49229170000001, 41.874365599999969 ], [ -71.4873167, 41.8742416 ], [ -71.4840537, 41.8704716 ] ] ] } },
{ "type": "Feature", "properties": { "state_po": "RI", "congressional_district": "RI-01", "pwsid": "RI2051311", "pws_name": "HERITAGE PARK HOME CO-OPERATIVE", "population_served_count": 60, "model_method": "Parcel", "verification_status": "", "symbology_field": "Modeled", "intersection_area_sq_km": 0.072055104553499227 }, "geometry": { "type": "Polygon", "coordinates": [ [ [ -71.1923349, 41.608591799999985 ], [ -71.187446, 41.6105128 ], [ -71.1867715, 41.609195899999968 ], [ -71.1901408, 41.607664400000026 ], [ -71.1923349, 41.608591799999985 ] ] ] } },
{ "type": "Feature", "properties": { "state_po": "RI", "congressional_district": "RI-01", "pwsid": "RI2980001", "pws_name": "FOUR SEASONS MHP CO-OP ASSN.", "population_served_count": 40, "model_method": "Parcel", "verification_status": "", "symbology_field": "Modeled", "intersection_area_sq_km": 0.024853265898864 }, "geometry": { "type": "Polygon", "coordinates": [ [ [ -71.1656933, 41.61953180000009 ], [ -71.1691762, 41.618866800000021 ], [ -71.1691594, 41.619544100000049 ], [ -71.1656933, 41.61953180000009 ] ] ] } },
{ "type": "Feature", "properties": { "state_po": "RI", "congressional_district": "RI-01", "pwsid": "RI2980003", "pws_name": "LAWRENCE SUNSET COVE ASSOCIATION", "population_served_count": 36, "model_method": "Parcel", "verification_status": "", "symbology_field": "Modeled", "intersection_area_sq_km": 0.0018328661969987017 }, "geometry": { "type": "Polygon", "coordinates": [ [ [ -71.1939298, 41.6061723 ], [ -71.1944045, 41.606577 ], [ -71.1940684, 41.606600800000031 ], [ -71.1939298, 41.6061723 ] ] ] } },
{ "type": "Feature", "properties": { "state_po": "RI", "congressional_district": "RI-01", "pwsid": "RI1900046", "pws_name": "UNITED STATES NAVY -FORT ADAMS", "population_served_count": 320, "model_method": "Random Forest", "verification_status": "", "symbology_field": "Modeled", "intersection_area_sq_km": 0.016856517611739851 }, "geometry": { "type": "Polygon", "coordinates": [ [ [ -71.3058596, 41.526933499999984 ], [ -71.3075216, 41.52823149999994 ], [ -71.3063146, 41.528395500000016 ], [ -71.3058596, 41.526933499999984 ] ] ] } },
{ "type": "Feature", "properties": { "state_po": "RI", "congressional_district": "RI-01", "pwsid": "RI2000083", "pws_name": "HEBERT HEALTH CENTER", "population_served_count": 200, "model_method": "Random Forest", "verification_status": "", "symbology_field": "Modeled", "intersection_area_sq_km": 0.99724729719602367 }, "geometry": { "type": "Polygon", "coordinates": [ [ [ -71.5597635, 41.9045816 ], [ -71.5576735, 41.907440700000045 ], [ -71.5563925, 41.912346700000022 ], [ -71.5551195, 41.913180699999955 ], [ -71.5525795, 41.911321699999974 ], [ -71.5522455, 41.9136197 ], [ -71.5443065, 41.9028556 ], [ -71.5447955, 41.899269600000054 ], [ -71.5478855, 41.8993956 ], [ -71.5523255, 41.903057599999983 ], [ -71.5541035, 41.901931599999976 ], [ -71.5556975, 41.9065437 ], [ -71.5597635, 41.9045816 ] ] ] } },
{ "type": "Feature", "properties": { "state_po": "RI", "congressional_district": "RI-01", "pwsid": "RI1900042", "pws_name": "TIVERTON WATER AUTHORITY, TOWN HALL", "population_served_count": 3213, "model_method": "", "verification_status": "", "symbology_field": "System Sourced", "intersection_area_sq_km": 3.512089226641534 }, "geometry": { "type": "Polygon", "coordinates": [ [ [ -71.150471668172145, 41.663535813402035 ], [ -71.1466161, 41.6486848 ], [ -71.1440885, 41.644989799999976 ], [ -71.1375268, 41.64318020000001 ], [ -71.1368603, 41.6402385 ], [ -71.1432474, 41.636859099999974 ], [ -71.1435931, 41.6247703 ], [ -71.1516945, 41.621290900000034 ], [ -71.1549314, 41.621297800000022 ], [ -71.1570751, 41.622243700000013 ], [ -71.1566089, 41.62512549999996 ], [ -71.1503201, 41.6277833 ], [ -71.1510636, 41.635474599999974 ], [ -71.1495547, 41.639839499999965 ], [ -71.1540421, 41.646870500000013 ], [ -71.1536532, 41.650602100000029 ], [ -71.159031226200469, 41.665014628711369 ], [ -71.150471668172145, 41.663535813402035 ] ] ] } },
{ "type": "Feature", "properties": { "state_po": "RI", "congressional_district": "RI-01", "pwsid": "RI1615619", "pws_name": "STONE BRIDGE FIRE DISTRICT", "population_served_count": 2607, "model_method": null, "verification_status": null, "symbology_field": "System Sourced", "intersection_area_sq_km": 7.8707208235541444 }, "geometry": { "type": "Polygon", "coordinates": [ [ [ -71.212884, 41.638969799999984 ], [ -71.2077865, 41.651100400000054 ], [ -71.1964364, 41.645492700000041 ], [ -71.197387, 41.640450600000051 ], [ -71.1947688, 41.636175100000031 ], [ -71.197819, 41.634978499999988 ], [ -71.2041829, 41.627919799999979 ], [ -71.2039577, 41.625323199999968 ], [ -71.1986224, 41.6240075 ], [ -71.1990761, 41.619193299999985 ], [ -71.1950975, 41.623386699999983 ], [ -71.1906584, 41.6229422 ], [ -71.1840746, 41.626797399999958 ], [ -71.1804154, 41.626749100000012 ], [ -71.1797199, 41.629742299999954 ], [ -71.174449299999978, 41.631948899999976 ], [ -71.1738667, 41.634138900000018 ], [ -71.1677061, 41.634216599999981 ], [ -71.1711704, 41.639848600000057 ], [ -71.1838341, 41.640603399999975 ], [ -71.1810953, 41.6417613 ], [ -71.1667199, 41.640741 ], [ -71.1664404, 41.6333553 ], [ -71.1633522, 41.631822299999961 ], [ -71.1631693, 41.6297986 ], [ -71.1545952, 41.63139 ], [ -71.1523438, 41.6298143 ], [ -71.1524312, 41.627211 ], [ -71.1566089, 41.62512549999996 ], [ -71.1571084, 41.622398600000032 ], [ -71.1627472, 41.622744399999981 ], [ -71.1679607, 41.6210191 ], [ -71.172219, 41.6212129 ], [ -71.1738201, 41.622936700000039 ], [ -71.1979377, 41.6126154 ], [ -71.2004573, 41.616557100000023 ], [ -71.2066726, 41.617518699999977 ], [ -71.211837, 41.623529 ], [ -71.215747600000014, 41.625593899999984 ], [ -71.2115152, 41.6294222 ], [ -71.2127676, 41.6349101 ], [ -71.2112779, 41.63844229999998 ], [ -71.212884, 41.638969799999984 ] ] ] } }
]
}
